COMPANY,CITY,PHONE,STATE,STREET,ZIP
A BIGGER ROOM LLC,SAN FRANCISCO,4154843548,CA,612 MASONIC AVENUE,94117
A. MACIEL PRINTING,SAN FRANCISCO,4156483553,CA,"50 MENDELL ST., UNIT 5",94124
A.M. JANITORIAL &AMP; MAINTENANCE AIDE SERVICES,DALY CITY,6503605116,CA,,94014
A.S.F. ELECTRIC INC.,DALY CITY,6507559032,CA,76 HILL ST.,94014
ABC7,SAN FRANCISCO,4159547777,CA,900 FRONT ST.,94111
ACADIA REALTY TRUST,RYE,9142883379,NY,"411 THEODORE FREMD AVE., STE. 300",10580
ACCENTURE,SAN FRANCISCO,4155375000,CA,"415 MISSION ST., STE. 3300",94105
ACE MAILING CORPORATION,SAN FRANCISCO,4158634223,CA,2736 16TH ST.,94103
ADVANCED ETIQUETTE,SAN ANSELMO,4153463665,CA,,
AECOM HUNT,SAN FRANCISCO,4153913930,CA,"300 CALIFORNIA ST., 6TH FLR.",94104
AETHLABS,SAN FRANCISCO,4155292355,CA,"2180 FOLSOM ST., 3RD FLR.",94110
AIA SAN FRANCISCO,SAN FRANCISCO,4158742620,CA,"150 SUTTER ST., STE. 814",94104
AIRBNB,SAN FRANCISCO,4158949510,CA,"888 BRANNAN ST., 4TH FLR.",94103
ALASKA AIRLINES,BURLINGAME,6507627000,CA,"1350 OLD BAYSHORE HWY., SUITE 205",94010
ALESSANDRO MACRI,,,,,
ALLEY COLLECTION,SAN FRANCISCO,6509545677,CA,440 BRANNAN ST.,94107
"ALPHAGRAPHICS - PRINTING, MARKETING, SIGNAGE, DIRECT MAIL",SAN FRANCISCO,4158829390,CA,530 HOWARD STREET,94105
ALTERNATIVE FAMILY SERVICES,SANTA ROSA,8003001022,CA,"131B STONY CIRCLE, SUITE 1200",94501
ALZHEIMER&#39;S ASSOCIATION,SAN FRANCISCO,4154638500,CA,"100 PINE ST., STE. 2150",94111
AMA&#39;S SAN FRANCISCO EXECUTIVE CONFERENCE CENTER,SAN FRANCISCO,4154426770,CA,55 FOURTH STREET,94103
AMATO DESIGNS,SAN FRANCISCO,4155640178,CA,2195 28TH AVE.,94116
AMAZON,SEATTLE,,WA,2121 7TH AVE.,98121
AMERICAN CONSERVATORY THEATER,SAN FRANCISCO,4158343200,CA,"30 GRANT AVE., 7TH FLR.",94108
AMERICAN LEGION POST 599,SAN FRANCISCO,4155702081,CA,"401 VAN NESS AVE., ROOM 224",94102
"AMERICAN MARKETING SYSTEMS, INC.",SAN FRANCISCO,4154472062,CA,2800 VAN NESS AVE.,94109
AMICI&#39;S EAST COAST PIZZERIA,SAN FRANCISCO,4158854500,CA,2200 LOMBARD ST.,94123
ANCHOR REALTY,SAN FRANCISCO,4156212700,CA,"2120 MARKET ST., STE. 105",94114
ANGELINA,SAN FRANCISCO,5103163097,CA,,
ANGELIQUE INTERIORS,SAN FRANCISCO,4155537117,CA,465 BARNEVELD AVE.,94124
ANOTHER PLANET ENTERTAINMENT,BERKELEY,5105483010,CA,"1815 FOURTH ST., STE. C",94710
ANVIL BUILDERS,EMERYVILLE,4152855000,CA,1550 PARK AVE.,94608
APCO,WASHINGTON,2138781209,DC,1299 PENNSYLVANIA AVE. NW,20004
APE DO GOOD PRINTING,SAN FRANCISCO,4158260277,CA,1672 15TH ST.,94103
APHOTIC SF,SAN FRANCISCO,4158650529,CA,816 FOLSOM STREET,94107
APRIL IN PARIS,SAN FRANCISCO,4157509910,CA,55 CLEMENT ST.,94118
ARCANA,SAN FRANCISCO,4159222565,CA,2512 MISSION ST.,94110
ARMANINO LLP,SAN RAMON,4155683280,CA,"12657 ALCOSTA BLVD., STE. 500",94583
ASIAN BUSINESS LEAGUE OF SAN FRANCISCO,SAN FRANCISCO,4156709022,CA,PO BOX 191345,94119-1345
ASSOCIATE CAPITAL,SAN FRANCISCO,4157968945,CA,420 23RD ST.,94107
ASTOR FINANCIAL GROUP,MILL VALLEY,4155440609,CA,"35 MILLER AVE., #402",94941
ASUNRISE &AMP; CO.,SAN FRANCISCO,4152183754,CA,86 GOLDEN GATE AVE.,94102
AT&AMP;T,SAN FRANCISCO,8003102355,CA,"430 BUSH ST., RM. 135",94108
ATELIER19,SAN FRANCISCO,4152054994,CA,1570 26TH AVE.,94122
AUDACY SF,SAN FRANCISCO,4157864000,CA,"88 KEARNY ST., 10TH FLOOR",94108
AUSTRALIAN CONSULATE GENERAL,SAN FRANCISCO,4156443620,CA,"575 MARKET ST., STE. 1800",94105
AVENTURE - VENTURE CAPITAL RESEARCH AND INVESTING IN STARTUPS,SAN FRANCISCO,4156836500,CA,44 TEHAMA ST,94105
AVIALEX LAW GROUP LLP,SAN MATEO,4154212500,CA,"177 BOVET RD., SUITE 600",94402
AVS / SAFECITY CONNECT,SAN FRANCISCO,4158241717,CA,"2601 MISSION ST., SUITE 401",94110
AXIOM HOTEL,SAN FRANCISCO,4153929466,CA,28 CYRIL MAGNIN ST.,94104
BABY LEO DESIGNS,SAN FRANCISCO,4154071197,CA,,
BABYLON BURNING,SAN FRANCISCO,4157778244,CA,63 BLUXOME ST.,94107
BABYLON MICRO-FARMS,RICHMOND,8049227446,VA,3409 CARLTON STREET,23230
BAHRAIN ECONOMIC DEVELOPMENT BOARD,,,,,
BANDMADE BOOKS,SAN FRANCISCO,4158165870,CA,"1090 EDDY ST., #104",94109
BANK OF AMERICA,SAN FRANCISCO,,CA,555 CALIFORNIA ST.,94104
BANK OF MARIN,SAN FRANCISCO,4154035585,CA,"345 CALIFORNIA ST., STE. 1150",94104
BANK OF SAN FRANCISCO,SAN FRANCISCO,4157446700,CA,"345 CALIFORNIA ST., SUITE 1600",94104
BARBARY INSURANCE BROKERAGE,OAKLAND,4157884700,CA,"436 14TH STREET, SUITE 1511",94612
BART (BAY AREA RAPID TRANSIT),OAKLAND,5104646060,CA,"300 LAKESIDE DR., PO BOX 12688",94604-2688
BARTRAM PARTNERSHIPS,NOVATO,4156083078,CA,360 IGNACIO BLVD.,94949
BASTA &AMP; COMPANY,SAN FRANCISCO,4153336262,CA,"100 PINE STREET, SUITE 1250",94111
BAUER&#39;S INTELLIGENT TRANSPORTATION,SAN FRANCISCO,4155221212,CA,PIER 50,94158
BAY AREA COUNCIL,SAN FRANCISCO,4159816600,CA,"THE KLAMATH, PIER 9, THE EMBARCADERO",94111
BAY AREA SPORTS HALL OF FAME,OAKLAND,,CA,PO BOX 428,94619
BAY LIGHTS CHARTERS,SAN FRANCISCO,4154055279,CA,2304 DIVISADERO ST.,94115
BAY TO BREAKERS / MOTIV SPORTS,HUNTINGTON BEACH,9194280236,CA,"5904 WARNER AVE., #475",92649
BAYFITTED,SAN FRANCISCO,4159634445,CA,508 ELLIS ST.,94109
BB EVENTS,SAN FRANCISCO,,CA,,
BCCI CONSTRUCTION COMPANY,SAN FRANCISCO,4158175100,CA,"1160 BATTERY ST., STE. 250",94111
BEACON VALUATION GROUP LLC,SAN FRANCISCO,4153571227,CA,"350 BAY ST., STE. 100-366",94133
BEASTWARES,SAN FRANCISCO,4156083523,CA,1811 FOLSOM ST.,94104
BEI HOTEL SAN FRANCISCO,SAN FRANCISCO,4156266103,CA,50 EIGHTH ST.,94103
BENNY GOLD,SAN FRANCISCO,4158143940,CA,3169 16TH ST.,94103
BENZIGER FAMILY WINERY,GLEN ELLEN,8884902739,CA,1883 LONDON RANCH RD.,95442
BERGDAVIS PUBLIC AFFAIRS,SAN FRANCISCO,4157881000,CA,351 CALIFORNIA STREET,94104
BETABRAND,SAN FRANCISCO,4159945210,CA,"3435 CESAR CHAVEZ ST., #224A",94110
BETTER,NEW YORK,4155238837,NY,175 GREENWICH ST.,10007
BETTER BUSINESS BUREAU,SAN LEANDRO,5108442000,CA,PO BOX 218,94577
BETTY J. LOUIE LP II,SAN FRANCISCO,,CA,667 GRANT AVE.,94108
BIALLA PARTNERS,SAUSALITO,4153327111,CA,"4000 BRIDGEWAY, STE. 201",94965
BIG BUS TOURS,SAN FRANCISCO,4159209310,CA,2150 OAKDALE AVE.,94124
BIMBO&#39;S 365 CLUB,SAN FRANCISCO,4154740365,CA,1025 COLUMBUS AVE.,94133
BIOCOM CALIFORNIA,SAN DIEGO,8584550300,CA,"10996 TORREYANA RD., STE. 200",92121-1160
"BIRO AND SONS, INC.",SAN FRANCISCO,4154313480,CA,1160 FOLSOM ST.,94103
BISCOFF COFFEE CORNER,SAN FRANCISCO,4153939554,CA,"PIER 39, SPACE 213",94133
BISSAP BAOBAB,SAN FRANCISCO,4152354606,CA,2243 MISSION ST.,94110
BISTRO BOUDIN,SAN FRANCISCO,4159281849,CA,160 JEFFERSON ST.,94133
BLACKHAWK CONTENT,SAN JOSE,9178062828,CA,1603 KOCH LN.,95125
BLACKROCK,SAN FRANCISCO,4155972000,CA,400 HOWARD ST.,94105
BLAZING SADDLES BIKE RENTALS &AMP; TOURS,SAN FRANCISCO,4152028888,CA,2715 HYDE ST.,94109
"BLOCK, INC.",SAN FRANCISCO,,CA,"901 MISSION ST., STE. 210",94103
BLOOMINGDALES,SAN FRANCISCO,4158565801,CA,845 MARKET STREET,94103
BLOWOLOGY DRY BAR &AMP; SPA,SAN FRANCISCO,5106129415,CA,"166 GEARY STREET, SUITE 1000",94108
BLUE SHIELD OF CALIFORNIA,SAN FRANCISCO,4152295164,CA,50 BEALE ST.,94105-1808
BLUEBLOOD LUXURY GOODS,,8778567877,,,
BLUFORD CONSULTING,SAN FRANCISCO,4155190882,CA,780 CAYUGA AVENUE,94112
BLUUMBIO,BERKELEY,,CA,"211 KOSHLAND HALL, UC BERKELEY",94720
BOMA SAN FRANCISCO,SAN FRANCISCO,4153628567,CA,"233 SANSOME ST., 8TH FLR.",94104
BONTON SEWING,SAN FRANCISCO,4152270782,CA,,
BOOKER T. WASHINGTON COMMUNITY SERVICE CENTER,SAN FRANCISCO,4159286596,CA,800 PRESIDIO AVE.,94115
BOOTY BOUTIQUE,SAN FRANCISCO,4155157720,CA,"30 RAUSCH ST., #2",94103
"BORBON SKINCARE, INC.",SAN FRANCISCO,4152152433,CA,"828 FRANKLIN ST., STE. 208",94102
BOUDIN BAKERY,SAN FRANCISCO,4159131849,CA,"50 FRANCISCO ST., STE. 200",94103
BOUDIN BAKERY - 4 EMBARCADERO,SAN FRANCISCO,4159131849,CA,"4 EMBARCADERO CENTER, JUSTIN HERMAN PLZ.",94111
BPM LLP,SAN FRANCISCO,4154215757,CA,"ONE CALIFONRIA ST., STE. 2500",94111
BRANNAN RITCH PROPERTIES LLC,SAN FRANCISCO,4159471000,CA,"435 BRANNAN ST., STE. 204",94107
BRAVIUM,SAN FRANCISCO,6502078314,CA,"995 9TH ST., TREASURE ISLAND",94130
"BREWVINO, SF",SAN FRANCISCO,7072170872,CA,2706 24TH ST.,94110
BRISBANE CHAMBER OF COMMERCE,BRISBANE,4154677283,CA,50 PARK PLACE,94005
BRITISH CONSULATE GENERAL,SAN FRANCISCO,4156171300,CA,"ONE SANSOME ST., STE. 850",94104
BROADWAYSF,SAN FRANCISCO,4155512075,CA,"1182 MARKET ST., STE. 200",94102
BROOKFIELD ASSET MANAGEMENT / BROOKFIELD PROPERTIES,SAN FRANCISCO,,CA,"685 MARKET ST., 5TH FLR.",94105
BUDDY RHODES STUDIO,SAN FRANCISCO,4154318070,CA,"501 CESAR CHAVEZ ST., STE. 110",94124
BUILDING KIDZ OF SAN FRANCISCO ON 20TH AVE.,SAN FRANCISCO,4155046513,CA,1258 20TH AVE.,94122
BUTLR TECHNOLOGIES INC.,BURLINGAME,4152056008,CA,"800 AIRPORT BLVD., SUITE 510",94010
C&AMP;M WOODWORKING INC.,SAN FRANCISCO,4154686589,CA,1787 EGBERT AVE.,94124
CACTUSWORKS,SAN FRANCISCO,4156448062,CA,"1795 CHESTNUT ST., #7",94123
CAHILL CONTRACTORS LLC,SAN FRANCISCO,4159860600,CA,"425 CALIFORNIA ST., STE. 2200",94104
"CAL INSURANCE &AMP; ASSOCIATES, INC.",SAN FRANCISCO,4156616500,CA,314 WEST PORTAL AVE.,94127
CALIFORNIA ACADEMY OF SCIENCES,SAN FRANCISCO,4153798000,CA,55 MUSIC CONCOURSE DRIVE,94118
CALIFORNIA INSTITUTE OF INTEGRAL STUDIES,SAN FRANCISCO,4155756100,CA,1453 MISSION ST.,94103
CALIFORNIA LIFE SCIENCES,SOUTH SAN FRANCISCO,6508713250,CA,"685 GATEWAY BLVD., STE. 100",94080
CALIFORNIA PACIFIC MEDICAL CENTER - ST. LUKE&#39;S CAMPUS,SAN FRANCISCO,4156478600,CA,3555 CESAR CHAVEZ ST.,94110-4403
CALLAHAN FINANCIAL PLANNING | SAN FRANCISCO FINANCIAL ADVISORS,SAN FRANCISCO,4157958600,CA,"75 BROADWAY ST., STE. 202",94111
CARDOZA-JAMES BINDING,SAN FRANCISCO,4155432000,CA,"2325 THIRD ST., STE. 221",94107
CARNAVAL SAN FRANCISCO,SAN FRANCISCO,4156911147,CA,1333 FLORIDA ST.,94110
CARY LASCALA,SAN FRANCISCO,5106848022,CA,560 LAGUNA ST.,94102
CASS CALDER SMITH ARCHITECTURE + INTERIORS,SAN FRANCISCO,4158642800,CA,44 MCLEA COURT,94103
CATHERINE JANE,SAN FRANCISCO,4156735733,CA,"1693 POLK ST., #209",94109-5143
CAYSON CULINARY DESIGNS INC.,SAN FRANCISCO,4156959596,CA,15 APPAREL WAY,94124
CELLARS 33,SAN FRANCISCO,4154184054,CA,495 BARNEVELD AVE.,94124
"CENTER HARDWARE &AMP; SUPPLY CO., INC.",SAN FRANCISCO,4158611800,CA,3003 THIRD ST.,94107
CHAMBERS FOR INNOVATION &AMP; CLEAN ENERGY (CICE),SAN FRANCISCO,,CA,"235 MONTGOMERY ST., STE. 760",94104
CHAMPION CHARTER BUS SAN FRANCISCO,SAN FRANCISCO,4152267968,CA,2131 FOLSOM ST.,94110
CHANCELLOR HOTEL ON UNION SQUARE,SAN FRANCISCO,4153622004,CA,433 POWELL ST.,94102
CHAR.CUTERIE LLC,SAN FRANCISCO,6502073944,CA,"20 JOICE ST., #2",94108
"CHARLES SCHWAB &AMP; CO., INC.",SAN FRANCISCO,4156367000,CA,100 POST ST.,94108
CHEVRON CORPORATION,SAN RAMON,9258421000,CA,6001 BOLLINGER CANYON RD.,94583
CHILDREN&#39;S LEARNING MUSEUM TV,SANTA CRUZ,8314285603,CA,PO BOX  2598,95063
CHIME FINANCIAL,SAN FRANCISCO,8442446363,CA,101 CALIFORNIA ST.,94111
CHINA BASIN MCCARTHY COOK &AMP; CO.,SAN FRANCISCO,4155433521,CA,"185 BERRY ST., STE. 140",94107
CHINA LIVE,SAN FRANCISCO,4157888188,CA,644 BROADWAY ST.,94133
CHOTTO MATTE,SAN FRANCISCO,4152345650,CA,50 O&#39;FARRELL STREET,94108
"CHRISTOPHER J. OVIEDO, DDS MS, INC.",SAN FRANCISCO,4157528330,CA,"380 20TH AVE., STE. 201",94121
CHULA PRODUCTIONS,SAN FRANCISCO,4157107081,CA,"2339 THIRD ST., STE. 57",94107
CIBC BANK USA,CHICAGO,8774486500,IL,120 S. LASALLE ST.,69602
CIOPPINO&#39;S,SAN FRANCISCO,4157759311,CA,400 JEFFERSON ST.,94109
CIRCA CORPORATION,SAN FRANCISCO,4158221600,CA,1330 FITZGERALD AVE.,94124
CIRECAST INC.,SAN FRANCISCO,4158223030,CA,1790 YOSEMITE AVE.,94124
CIRQUE DU SOLEIL AMERICA NEWCO,LAS VEGAS,7028505211,NV,"1151 GRIER DRIVE, SUITE C",89119
CITY BEES,SAN FRANCISCO,4157227640,CA,1388 SIXTH AVE.,94122
CITY COLLEGE OF SAN FRANCISCO,SAN FRANCISCO,4152393303,CA,"50 FRIDA KAHLO WAY, BOX E200",94112
CITY REAL ESTATE,SAN FRANCISCO,4159485747,CA,629 DIVISADERO ST.,94117
CIVIC EDGE CONSULTING,SAN FRANCISCO,4159150511,CA,"101A CLAY ST., #267, EMBARCADERO CENTER 3",94111
CIVIC HUB,SAN FRANCISCO,4155717002,CA,"95 THIRD STREET, 2ND FLOOR",94103
CLAIRESQUARES,SAN FRANCISCO,4157222080,CA,,
"CLAREMONT CLUB &AMP; SPA, A FAIRMONT HOTEL",BERKELEY,5108433000,CA,41 TUNNEL ROAD,94705
CLAUDIA KUSSANO,SAN FRANCISCO,4156710769,CA,591 GUERRERO ST.,94110
"CLEAN BIG, INC.",SAN FRANCISCO,4157972575,CA,"1517 NORTH POINT ST., #319",94123
CLEAR,NEW YORK,,NY,"85 10TH AVE., 9TH FLOOR",10011
CLEAR CHANNEL OUTDOOR,OAKLAND,5108355900,CA,"555 12TH ST., STE. 950",94607
CLEOPETRA,SAN FRANCISCO,4158241006,CA,72 APPAREL WAY,94124
CLIMATEPRO,COTATI,8004796292,CA,"374 BLODGETT STREET, SUITE 1",94931
CLOUDCONTACTAI,SAN FRANCISCO,4152440933,CA,40 FOREST SIDE AVENUE,94127
CLUB FIFE,SAN FRANCISCO,4158138074,CA,,
CLUB FUGAZI EXPERIENCES LLC,SAN FRANCISCO,,CA,678 GREEN ST.,94133
COBLENTZ PATCH DUFFY &AMP; BASS LLP,SAN FRANCISCO,4153914800,CA,"ONE MONTGOMERY ST., STE. 3000",94104
COCOA,SAN FRANCISCO,4153058421,CA,"2565 THIRD ST., STE. 312",94107
COLIN MORAN,PACIFIC GROVE,5086887401,CA,130 11TH ST.,93950
COLLEEN MAUER DESIGNS,SAN FRANCISCO,4156377762,CA,1406B VALENCIA ST.,94110
COMCAST,SAN FRANCISCO,8009452288,CA,1485 BAYSHORE BLVD.,94124
CONCEPTUAL ART TECHNOLOGIES,SAN FRANCISCO,2482272875,CA,226 BELLA VISTA WAY,94127
CONSULATE GENERAL OF ARGENTINA,LOS ANGELES,3239549155,CA,"5055 WILSHIRE BLVD., STE. 210",90036
CONSULATE GENERAL OF CAMEROON,,,,,
CONSULATE GENERAL OF CANADA,SAN FRANCISCO,4158343180,CA,"580 CALIFORNIA ST., 14TH FLR.",94104
CONSULATE GENERAL OF CHILE,SAN FRANCISCO,4159827662,CA,"870 MARKET ST., STE. 1058",94102
CONSULATE GENERAL OF COLOMBIA,SAN FRANCISCO,4154957195,CA,"595 MARKET ST., STE. 1190",94105-2832
CONSULATE GENERAL OF COSTA RICA,FREMONT,5107900785,CA,35535 COLLIER PL.,94536
CONSULATE GENERAL OF CYPRUS,LAFAYETTE,9252841060,CA,75 SILVERWOOD DR.,94549
CONSULATE GENERAL OF DOMINICAN REPUBLIC,GLENDALE,8185046605,CA,"500 N. BRAND BLVD., STE. 960",91203
CONSULATE GENERAL OF ECUADOR,BEVERLY HILLS,3236586020,CA,"8484 WILSHIRE BLVD., STE. 540",90211
CONSULATE GENERAL OF EGYPT,LOS ANGELES,3239339700,CA,"6300 WILSHIRE BLVD., SUITE 1890",90048
CONSULATE GENERAL OF EL SALVADOR,SAN FRANCISCO,4157718524,CA,"507 POLK ST., STE. 280",94102
CONSULATE GENERAL OF ESTONIA IN SAN FRANCISCO,SAN FRANCISCO,4156979411,CA,"101 NATOMA ST., 3RD FLOOR",94105
CONSULATE GENERAL OF FRANCE,SAN FRANCISCO,4156164906,CA,"44 MONTGOMERY STREET, SUITE 3400",94104
CONSULATE GENERAL OF GERMANY,SAN FRANCISCO,4157751061,CA,1960 JACKSON ST.,94109
CONSULATE GENERAL OF GREECE,SAN FRANCISCO,4157752102,CA,2441 GOUGH ST.,94123
CONSULATE GENERAL OF GUATEMALA,SAN FRANCISCO,4155638319,CA,659 A MERCHANT ST.,94111
CONSULATE GENERAL OF INDIA,SAN FRANCISCO,4156680662,CA,540 ARGUELLO BLVD.,94118
CONSULATE GENERAL OF IRELAND,SAN FRANCISCO,4153924214,CA,"ONE POST ST., STE. 2300",94104
CONSULATE GENERAL OF ISRAEL,SAN FRANCISCO,4158447500,CA,"456 MONTGOMERY ST., STE. 2100",94104
CONSULATE GENERAL OF ITALY,SAN FRANCISCO,4152929200,CA,2590 WEBSTER ST.,94115
CONSULATE GENERAL OF JAPAN,SAN FRANCISCO,4157806000,CA,"275 BATTERY ST., STE. 2100",94111
CONSULATE GENERAL OF LUXEMBOURG,SAN FRANCISCO,4157880816,CA,"1 SANSOME ST., STE. 830",94104
CONSULATE GENERAL OF MEXICO,SAN FRANCISCO,4153541700,CA,532 FOLSOM ST.,94105
CONSULATE GENERAL OF NEPAL,,2026674550,,,
CONSULATE GENERAL OF NEW ZEALAND,BURLINGAME,6503424443,CA,PO BOX 1276,94011-1276
CONSULATE GENERAL OF NORWAY,SAN FRANCISCO,4158822000,CA,"575 MARKET ST., STE. 3950",94105
CONSULATE GENERAL OF PERU,SAN FRANCISCO,4153625647,CA,"870 MARKET ST., STE. 1075",94102
CONSULATE GENERAL OF SPAIN,SAN FRANCISCO,4159222995,CA,1405 SUTTER ST.,94109-5417
CONSULATE GENERAL OF SWEDEN,SAN FRANCISCO,4157882631,CA,"505 SANSOME ST., STE. 1010",94111
CONSULATE GENERAL OF SWITZERLAND,SAN FRANCISCO,4157882272,CA,"PIER 17, SUITE 600",94111
CONSULATE GENERAL OF THE CZECH REPUBLIC,SAN FRANCISCO,4158134040,CA,"201 MISSION ST., STE. 710",94105
CONSULATE GENERAL OF THE PEOPLE&#39;S REPUBLIC OF CHINA,SAN FRANCISCO,4156742900,CA,1450 LAGUNA ST.,94115
CONSULATE GENERAL OF THE PHILIPPINES,SAN FRANCISCO,4154336666,CA,"447 SUTTER ST., 6TH FLOOR",94108
CONSULATE GENERAL OF THE REPUBLIC OF INDONESIA,SAN FRANCISCO,4154749571,CA,1111 COLUMBUS AVE.,94133
CONSULATE GENERAL OF THE REPUBLIC OF KOREA,SAN FRANCISCO,4159212251,CA,3500 CLAY ST.,94118
CONSULATE GENERAL OF THE REPUBLIC OF SINGAPORE,SAN FRANCISCO,4155434775,CA,"595 MARKET ST., STE. 2450",94105
CONSULATE GENERAL OF THE TURKISH REPUBLIC,SONOMA,4153620912,CA,"19229 SONOMA HWY., STE. 345",95476
CONSULATE GENERAL OF TONGA,BURLINGAME,6506851001,CA,"1350 BAYSHORE HWY., STE. 610",94010
CONSULATE GENERAL OF URUGUAY,SAN FRANCISCO,4158727566,CA,"111 PINE ST., STE. 1650",94111
CONSULATE GENERAL OF VENEZUELA,SAN FRANCISCO,4152942252,CA,"1161 MISSION ST., STE. 300",94103
CONSULATE GENERAL OF VIETNAM,SAN FRANCISCO,4159221707,CA,"1700 CALIFORNIA ST., STE. 430",94109
CONSULATE OF AUSTRIA,SAN FRANCISCO,4157659576,CA,"580 CALIFORNIA ST., STE. 1500",94104
CONSULATE OF BARBADOS,SAN FRANCISCO,4154218789,CA,"442 POST ST., STE. 800",94102
CONSULATE OF BELIZE,SAN FRANCISCO,4157887500,CA,916 KEARNY ST.,94133
CONSULATE OF BOTSWANA,SAN FRANCISCO,4158852733,CA,"165 FRANCISCO ST., STE. 11",94133
CONSULATE OF BRAZIL,SAN FRANCISCO,4159818170,CA,"300 MONTGOMERY ST., STE. 300",94104
CONSULATE OF FIJI,SO. SAN FRANCISCO,6505801951,CA,521 ROCCA AVE.,94080
CONSULATE OF ICELAND,SAN FRANCISCO,4154333103,CA,"222 FRONT ST., 5TH FLR.",94111
CONSULATE OF LIBERIA,OAKLAND,5104443919,CA,1101 EMBARCADERO WEST,94607
CONSULATE OF LITHUANIA,SAN FRANCISCO,4157887354,CA,"ONE MARITIME PLAZA, STE. 1925",94111
CONSULATE OF MADAGASCAR,BERKELEY,5106438301,CA,2299 PIEDMONT AVE.,94720
CONSULATE OF MALTA,MILLBRAE,4155053789,CA,716 BIRKSHIRE DR.,94030
CONSULATE OF MONACO,SAN FRANCISCO,4156270729,CA,"10 MILLER PLACE, STE. 2001",94108
CONSULATE OF NICARAGUA,SAN FRANCISCO,4157656825,CA,"870 MARKET ST., STE. 1050",94102
CONSULATE OF THE REPUBLIC OF YEMEN,SAN FRANCISCO,4155673036,CA,1204 SUTTER ST.,94109
CORDIA ENERGY - ENERGY CENTER SAN FRANCISCO,SAN FRANCISCO,4157773415,CA,"14 MINT PLAZA, STE. 200",94103
COTERIE - CATHEDRAL HILL,SAN FRANCISCO,4159156655,CA,1001 VAN NESS AVE.,94109
CRAB HOUSE,SAN FRANCISCO,4156512574,CA,"PIER 39, #213",94133
CRCS BUSINESS SERVICE INC.,SAN FRANCISCO,4706528206,CA,3879 23RD ST.,94114
CROWN CASTLE,IRVINE,9493447804,CA,"200 SPECTRUM CENTER DR., STE. 1800",92618
CRUISE AUTOMATION,SAN FRANCISCO,,CA,333 BRANNAN ST.,94107
CURATOR,SAN FRANCISCO,4152925745,CA,1767 CHURCH ST.,94131
CUSTOM FURNITURE DESIGN,SAN RAFAEL,4154533900,CA,31 DUFFY PL.,94901
CUT LOOSE,SAN FRANCISCO,4158222031,CA,101 WILLIAMS AVE.,94124
CYBERHEDZ MEDIA LLC,SAN FRANCISCO,4153055070,CA,1720 PACIFIC AVE,94109
D:LUXO,SAN FRANCISCO,4157862614,CA,4398 17TH ST.,94114
DARK GARDEN CORSETRY,SAN FRANCISCO,4154317684,CA,321 LINDEN ST.,94102
"DAVID PERRY &AMP; ASSOCIATES, INC.",SAN FRANCISCO,4157671067,CA,"584 CASTRO ST., STE. 529",94114
DAVID RIO,SAN FRANCISCO,4155432733,CA,PO BOX 885462,94188
DCL PRODUCTIONS INC.,SAN FRANCISCO,4158262200,CA,1284 MISSOURI ST.,94107
DEBORAH LARDIE CPA,SAN FRANCISCO,4158640770,CA,"584 CASTRO ST., #457",94114
DELOITTE,SAN FRANCISCO,4157834000,CA,555 MISSION ST.,94105
DELTA AIR LINES,SAN FRANCISCO,,CA,,
DELTA DENTAL OF CALIFORNIA,SAN FRANCISCO,4159728300,CA,"560 MISSION ST., STE. 1300",94105
DEMA,SAN FRANCISCO,4155950357,CA,"1067 MARKET ST., #6001",94103
DEPARTMENT ON THE STATUS OF WOMEN,SAN FRANCISCO,4152522570,CA,"25 VAN NESS AVE., STE. 240",94102
DEPARTMENT SEVENTEEN,SAN FRANCISCO,4155678340,CA,,
"DEPENDABLE LETTERPRESS, INC.",SAN FRANCISCO,4155030981,CA,"610 22ND ST., STE. 247",94107
DES ARCHITECTS + ENGINEERS INC.,SAN FRANCISCO,4155102021,CA,"1 SANSOME ST., STE. 1620",94104
DIAGEO NORTH AMERICA,SAN FRANCISCO,4158357300,CA,1160 BATTERY ST.,94111
DIGNITY HEALTH,SAN FRANCISCO,4154385500,CA,"185 BERRY ST., STE. 200",94107
DIGNITY HEALTH-GOHEALTH URGENT CARE - CASTRO,SAN FRANCISCO,4159644855,CA,2288 MARKET ST.,94114
DIGNITY HEALTH-GOHEALTH URGENT CARE - COLE VALLEY,SAN FRANCISCO,4159644789,CA,"930 COLE ST., STE. 102",94117
DIGNITY HEALTH-GOHEALTH URGENT CARE - DALY CITY,DALY CITY,6502702394,CA,325 GELLERT BLVD.,94015
DIGNITY HEALTH-GOHEALTH URGENT CARE - GLEN PARK,SAN FRANCISCO,4159644866,CA,2895 DIAMOND ST.,94131
DIGNITY HEALTH-GOHEALTH URGENT CARE - LOMBARD,SAN FRANCISCO,4157962242,CA,2395 LOMBARD ST.,94123
DIGNITY HEALTH-GOHEALTH URGENT CARE - MARKET STREET,SAN FRANCISCO,4157461812,CA,1600 MARKET ST.,94102
DIGNITY HEALTH-GOHEALTH URGENT CARE - MILL VALLEY,MILL VALLEY,4153844778,CA,"750 REDWOOD HWY., STE. 1204",94941
DIGNITY HEALTH-GOHEALTH URGENT CARE - NORTH BEACH,SAN FRANCISCO,4159658050,CA,"170 COLUMBUS AVE., STE. 110",94133
DIGNITY HEALTH-GOHEALTH URGENT CARE - PIEDMONT AVENUE,OAKLAND,4154327899,CA,3900 PIEDMONT AVE.,94611
DIGNITY HEALTH-GOHEALTH URGENT CARE - REDWOOD CITY,REDWOOD CITY,6503810616,CA,830 JEFFERSON AVE.,94063
DIGNITY HEALTH-GOHEALTH URGENT CARE - SAN BRUNO,SAN BRUNO,6502702395,CA,"1310 EL CAMINO REAL, STE. I - J",94066
DIGNITY HEALTH-GOHEALTH URGENT CARE - WEST PORTAL,SAN FRANCISCO,4158218798,CA,199 WEST PORTAL AVE.,94127
DIMENSION 3,SAN FRANCISCO,4158607957,CA,2142 CASTRO ST.,94131
"DISABLED EMPLOYEES&#39; REHABILITATION, INC.",SAN FRANCISCO,4156265396,CA,PO BOX 471621,94147-1621
DODGE &AMP; COX,SAN FRANCISCO,4159811710,CA,"555 CALIFORNIA ST., 40TH FLOOR",94104
DOORDASH,SAN FRANCISCO,,CA,"901 MARKET ST., 6TH FLR.",94103
"DOUBLE DOG MOTO, INC.",SAN FRANCISCO,4157874836,CA,220 NINTH ST.,94103
DRESS FOR SUCCESS SAN FRANCISCO,SAN FRANCISCO,4153620034,CA,"500 SUTTER ST., STE. 218",94102
DREW ALTIZER PHOTOGRAPHY,SAN FRANCISCO,4158122500,CA,"2525 VAN NESS AVE., STE. 204",94109
DROPBOX INC.,SAN FRANCISCO,,CA,1800 OWENS ST.,94158-2381
"E2 (ENVIRONMENTAL ENTREPRENEURS), A PARTNER OF NATURAL RESOURCES DEFENSE COUNCIL",SAN FRANCISCO,4158756100,CA,"111 SUTTER ST., 20TH FLR.",94104
EAGLE CAFE,SAN FRANCISCO,4154841282,CA,"PIER 39, SPACE A201",94133
EARTHBODY,SAN FRANCISCO,4155527200,CA,534 LAGUNA ST.,94102
ELLEN NEWMAN ASSOCIATES,SAN FRANCISCO,4154331010,CA,"323 GEARY ST., STE. 507",94102
EMERALD FUND,SAN FRANCISCO,4157772914,CA,"155 MONTGOMERY ST., STE. 1100",94104
EMIRATES AIRLINES,BURLINGAME,6504013987,CA,"1350 OLD BAYSHORE HWY., STE. 420",94010
EMMY&#39;S PICKLES &AMP; JAMS,SAN FRANCISCO,4155151305,CA,1667 JERROLD AVE.,94124
EMPLOYERS GROUP,SAN FRANCISCO,80074884843908,CA,"ONE MARKET ST., SPEAR TOWER, STE. 3600",94105
EMPRESS BY BOON,SAN FRANCISCO,4157570728,CA,838 GRANT AVE.,94108
EPIC STEAK,SAN FRANCISCO,4153699955,CA,369 THE EMBARCADERO,94105
EQUITY RESIDENTIAL,SAN FRANCISCO,,CA,"333 3RD ST., STE. 210",94103
EQUITY TRADE NETWORK &AMP; GIFT OF DOJA,SAN FRANCISCO,6505201886,CA,"2261 MARKET ST., STE. 4",94114
ERISTAVI WINERY,SAN FRANCISCO,4157027027,CA,"995 NINTH ST., BLDG. 201, TREASURE ISLAND",94130
"EROGEAR, LLC",SAN FRANCISCO,5177756129,CA,561 WALLER ST.,94117
ESCAPOLOGY STONESTOWN,SAN FRANCISCO,4157664177,CA,"3251 20TH AVE., #360",94132
ETTA + BILLIE,SAN FRANCISCO,8444578491,CA,"1777 YOSEMITE AVE., STE. 055",94124
EVELYN KNIGHT JEWELRY,SAN FRANCISCO,4158241006,CA,72 APPAREL WAY,94124
EVERSHEDS SUTHERLAND (US) LLP,SACRAMENTO,9162410500,CA,"500 CAPITOL MALL, STE. 1750",95814
EXTREME PIZZA,SAN RAFAEL,4157602203,CA,938 B ST.,94901
EYE ZEN PRESENTS,SAN FRANCISCO,4157869325,CA,1446 MARKET ST.,94102
"FAIRE WHOLESALE, INC.",SAN FRANCISCO,,CA,100 POTRERO AVE.,94103
FAIRMONT SAN FRANCISCO,SAN FRANCISCO,4157725000,CA,"950 MASON ST., ATOP NOB HILL",94108
"FARRAND COOPER, P.C.",SAN FRANCISCO,4153990600,CA,"235 MONTGOMERY ST., STE. 624",94104
FAZILET CONSULTING,SAN FRANCISCO,4157864464,CA,467 GOLD MINE DRIVE,94131
FIAT LUX,SAN FRANCISCO,4157482471,CA,3169 16TH ST.,94103
"FIBROGEN, INC.",SAN FRANCISCO,4159781200,CA,409 ILLINOIS ST.,94158
FIERY RED DESIGN SF,SAN FRANCISCO,4152184195,CA,,
FIFTH THIRD BANK,SAN FRANCISCO,8009723030,CA,"275 BATTERY STREET, SUITE 1100",94111
FINE ARTS MUSEUMS OF SAN FRANCISCO - DE YOUNG &AMP; LEGION OF HONOR,SAN FRANCISCO,4157503661,CA,50 HAGIWARA TEA GARDEN DR.,94118-4501
FIRST GRADUATE,SAN FRANCISCO,4155613450,CA,"2973 16TH ST., STE. 400",94103
FISHER PHILLIPS,SAN FRANCISCO,4154909000,CA,"ONE EMBARCADERO CENTER, STE. 2050",94111
FISHERMAN&#39;S WHARF COMMUNITY BENEFIT DISTRICT,SAN FRANCISCO,4156733530,CA,"2801 LEAVENWORTH ST., 2ND FLOOR, SUITE B-16",94133
FITA ASSOCIATION,RESTON,7036201588,VA,"11654 PLAZA AMERICA DR., STE. 120",20190
FIVE DIGIT DESIGN,SAN FRANCISCO,4158345756,CA,,94131
FIVE STAR BANK,RANCHO CORDOVA,9166401517,CA,"3100 ZINFANDEL DR., SUITE 650",95670
FIVEPOINT,SAN FRANCISCO,4159951770,CA,"ONE SANSOME ST., STE. 3200",94104
FIXED DESIGN,SAN FRANCISCO,4157350054,CA,427 BRYANT ST.,94107
FLOOD BUILDING,SAN FRANCISCO,4159823298,CA,"870 MARKET ST., STE. 1100",94102
FLOORTEX DESIGN ABBEY CARPET SAN FRANCISCO,SAN FRANCISCO,4157526620,CA,2900 GEARY BLVD.,94118
FLORA SPRINGS WINE AND VINEYARDS,ST. HELENA,7079635711,CA,1978 WEST ZINFANDEL LANE,94574
FLOWER TURBINES,,,,,
FOAMORDER.COM,RICHMOND,4155031188,CA,,
FOG HARBOR FISH HOUSE,SAN FRANCISCO,4154212442,CA,PIER 39,94133
FOGO DE CHAO,SAN FRANCISCO,4154270004,CA,"201 THIRD ST., STE. 100",94103
FOLEY &AMP; LARDNER LLP,SAN FRANCISCO,4154344484,CA,"555 CALIFORNIA ST., STE. 1700",94104
FORT MASON CENTER,SAN FRANCISCO,4153457500,CA,"2 MARINA BLVD., LANDMARK BUILDING A",94123-1382
FRANCISCAN INTERIORS,SAN FRANCISCO,4155508910,CA,"540 BARNEVELD AVE., STE. M",94124
FRANNIE&#39;S,SAN FRANCISCO,4153360625,CA,2407 26TH AVE.,94116
FRIENDS OF THE SAN FRANCISCO PUBLIC LIBRARY,SAN FRANCISCO,4156267500,CA,1630 17TH ST.,94102
FRISCO BRANDY,SAN FRANCISCO,4159998381,CA,3484 SCOTT ST.,94123
FTC SKATEBOARDING,SAN FRANCISCO,4156260663,CA,1632 HAIGHT ST.,94117
FUSED GLASS CREATIONS,SAN FRANCISCO,4152157422,CA,JUSTIN HERMAN PLAZA,
FUTURE BARS GROUP,SAN FRANCISCO,4159317292,CA,"244 KEARNY ST., 7TH FLR.",94108
FUTURE GLORY,SAN FRANCISCO,4153414399,CA,"435 23RD ST., STE. 21",94107
G. RHEA SERPAN,DANVILLE,9258205921,CA,94 OAK RIDGE COURT,94506
GALANTER &AMP; JONES,SAN FRANCISCO,4159370336,CA,175 BARNEVELD AVE.,94124-1317
GAP INC.,SAN FRANCISCO,8003337899,CA,TWO FOLSOM ST.,94105
GATEWAY GLOBAL TRANSPORTATION,BURLINGAME,6506975548,CA,1550 GILBRETH RD.,94010
GENSLER,SAN FRANCISCO,4154333700,CA,"220 MONTGOMERY ST., SUITE 200",94104
GEYSERVILLE INN,GEYSERVILLE,7078574343,CA,21714 GEYSERVILLE AVE.,95441
GINO DE GRANDIS PHOTOGRAPHY,SAN MATEO,6505794426,CA,53 E 38TH AVE.,94403-3707
GIRAUX FINE JEWELRY,SAN FRANCISCO,4158638188,CA,"888 BRANNAN ST., STE. 129",94103
GLAMMIC,SAN FRANCISCO,4153782018,CA,"1819 POLK ST., #348",94109
GLOBAL MERCHANDISING CORPORATION / MARK ROSS &AMP; CO.,SAN FRANCISCO,4152855500,CA,1681 FOLSOM ST.,94103
GLOBAL OFFICE INC.,SAN FRANCISCO,9254123515,CA,1715 POLK ST.,94109
"GLOBAL RISK SOLUTIONS, INC.",PALO ALTO,8886287738,CA,"2100 GENG ROAD, SUITE 210",94303
GLOBALSF,SAN FRANCISCO,,CA,44 TEHAMA ST.,94105
GODAR FURNITURE,SAN FRANCISCO,4158634775,CA,2241 QUESADA AVE.,94124
GOGO CHARTERS SAN FRANCISCO,SAN FRANCISCO,4154622870,CA,1605 MONTGOMERY ST,94111
GOLDEN 1 CREDIT UNION,SACRAMENTO,9167322900,CA,8945 CAL CENTER DR.,95826
GOLDEN BEAR SPORTSWEAR,SAN FRANCISCO,4158636171,CA,200 PORTRERO AVE.,94103
GOLDEN GATE BUSINESS ASSOCIATION (LGBTQ),SAN FRANCISCO,4158624422,CA,"584 CASTRO ST., STE. 528",94114
GOLDEN GATE NATIONAL PARKS CONSERVANCY,SAN FRANCISCO,4155613000,CA,"FORT MASON, BUILDING 201",94123
GOLDEN GATE PERFORMING ARTS DBA SAN FRANCISCO GAY MEN&#39;S CHORUS,SAN FRANCISCO,4158653650,CA,170 VALENCIA ST.,94103
GOLDEN GATE RESTAURANT ASSOCIATION,SAN FRANCISCO,4157815348,CA,"4104 24TH ST., PMB 402",94114
GOLDEN GATE UNIVERSITY,SAN FRANCISCO,4154427000,CA,536 MISSION ST.,94105-2968
GOLDEN GOODS USA,SAN FRANCISCO,4159639817,CA,"300 BEALE ST., #311",94105
GOLDEN STATE WARRIORS,SAN FRANCISCO,8884794667,CA,1 WARRIORS WAY,94158
"GOLDENVOICE/AEG (THE REGENCY BALLROOM, THE WARFIELD THEATRE)",SAN FRANCISCO,4153450577,CA,1290 SUTTER ST.,94109
GOODWILL OF THE SAN FRANCISCO BAY,SAN FRANCISCO,4155752100,CA,750 POST ST.,94109
GOODWIN PROCTER LLP,SAN FRANCISCO,4157336000,CA,"THREE EMBARCADERO CENTER, 28TH FLR.",94111
GOOGLE,MOUNTAIN VIEW,6506234000,CA,1600 AMPHITHEATRE PKWY.,94043
GOOSEBERRY DESIGNS,LOS GATOS,4084025270,CA,"20 SOUTH SANTA CRUZ AVE., STE. 105",95032
GOVERNMENT OF VICTORIA,SAN FRANCISCO,4158560552,CA,"575 MARKET ST., STE. 800",94104
GRAND HYATT SAN FRANCISCO,SAN FRANCISCO,4153981234,CA,"345 STOCKTON ST., UNION SQUARE",94108
GRAPHIC OREGON,SAN FRANCISCO,4155019198,CA,45 29TH STREET,94110
GRAPHIC SPORTSWEAR,SAN FRANCISCO,4152550535,CA,1240 MINNESOTA ST.,94107
GRAVEL &AMP; GOLD,SAN FRANCISCO,4155520112,CA,3266 21ST ST.,94110
GREEN APPLE BOOKS,SAN FRANCISCO,4153872272,CA,506 CLEMENT ST.,94118
GUARANTEE MORTGAGE CORPORATION,SAN FRANCISCO,4154415050,CA,"505 MONTGOMERY ST., STE. 1275",94111
GUEVARRA ARCEGA,SAN FRANCISCO,4156998374,CA,"744 ALABAMA ST., STUDIO 229, 2ND FLR.",94110
GUMAS ADVERTISING,SAN FRANCISCO,4156217575,CA,"TWO EMBARCADERO CENTER, 8TH FLOOR",94111
GWEN GEAR SAN FRANCISCO,SAN FRANCISCO,4156375551,CA,"1588 INDIANA ST., #2",94107
HALF MOON BAY COASTSIDE CHAMBER OF COMMERCE AND VISITORS&#39; BUREAU,HALF MOON BAY,6507268380,CA,235 MAIN ST.,94019
"HAMILTON CRESCENT CAPITAL MANAGEMENT, INC.",SAN FRANCISCO,4158122193,CA,"315 MONTGOMERY ST., 10TH FLOOR",94104
HANSON BRIDGETT LLP,SAN FRANCISCO,4157773200,CA,"425 MARKET ST., 26TH FLR.",94105
HARD ROCK CAFE SAN FRANCISCO,SAN FRANCISCO,4159562013,CA,PIER 39,94133
HARRIS&#39; RESTAURANT,SAN FRANCISCO,4156731888,CA,2100 VAN NESS AVE.,94109
HATHAWAY DINWIDDIE CONSTRUCTION COMPANY,SAN FRANCISCO,4159862718,CA,"275 BATTERY ST., STE. 300",94111-3330
"HATTER &AMP; CO., CPA",SAN FRANCISCO,4156779911,CA,"150 POST ST., STE. 610",94108
HEADLINE SHIRTS,SAN FRANCISCO,4156262957,CA,"3288 21ST ST., STE. 241",94110
HEADSHOTS INC.,SAN FRANCISCO,4152095402,CA,220 MONTGOMERY STREET,94104
HEALTHRIGHT 360,SAN FRANCISCO,4157623700,CA,1563 MISSION ST.,94103
HELIOTROPE SAN FRANCISCO,SAN FRANCISCO,4156434847,CA,415 VALENCIA ST.,94103
"HELLMUTH, OBATA + KASSABAUM",SAN FRANCISCO,4152430555,CA,"ONE BUSH ST., STE. 200",94104
HELLO! LUCKY,SAN FRANCISCO,4153550008,CA,PO BOX 170605,94117
HERMAN JACKSON,VALLEJO,9168249184,CA,,94590
HEY BOO,SAN FRANCISCO,6508236541,CA,"5800 THIRD ST., #1316",94124
HIDIVE &AMP; ATWATER TAVERN,SAN FRANCISCO,4155127153,CA,295 TERRY A. FRANCOIS BLVD,94158
HILLMAN ELECTRIC,SAN FRANCISCO,5107609393,CA,1201 SHAFTER AVE.,94124
HILSIDE BAGS,SAN FRANCISCO,4152158111,CA,"10 LUPINE AVE., #22",94118
HILTON SAN FRANCISCO UNION SQUARE,SAN FRANCISCO,4157711400,CA,333 O&#39;FARRELL ST.,94102-2116
HINES,SAN FRANCISCO,4153988655,CA,"101 CALIFORNIA ST., STE. 1050",94111
"HIRE-ABILITY, A DIVISON OF RAMS, INC.",SAN FRANCISCO,4152829675,CA,1234 INDIANA ST.,94107
HNTB CORPORATION,OAKLAND,5102084599,CA,"2101 WEBSTER, SUITE 1400",94612
HOLLINS CONSULTING,SAN FRANCISCO,,CA,"870 MARKET ST., STE. 700",94102
HOLY STITCH!,SAN FRANCISCO,4155253527,CA,"PMB 317, 237 KEARNY ST., #317",94108
HOME FOR A HOME,SAN FRANCISCO,4153220560,CA,PO BOX 156652,94115
HON PUI LAM,SAN FRANCISCO,4156642218,CA,,
HONORARY CONSULATE OF BELGIUM,SAN FRANCISCO,4152954850,CA,"155 MONTGOMERY ST., STE. 901",94104
HONORARY CONSULATE OF COTE D&#39;IVOIRE,SAN FRANCISCO,8004835414,CA,"201 SPEAR STREET, SUITE 1100",94105
HONORARY CONSULATE OF FINLAND,SAN FRANCISCO,6509960336,CA,"219 BRANNAN STREET, UNIT 17A",94107
HONORARY CONSULATE OF HUNGARY,SAN MATEO,6505737351,CA,"205 DE ANZA BLVD., PMB 157",94402-3989
HOOGASIAN FLOWERS,SAN FRANCISCO,8002292732,CA,615 SEVENTH ST.,94103
HOTCAKES DESIGN &AMP; FAVOR,BERKELEY,4155632741,CA,1649 SAN PABLO AVE.,94702
HOTEL ABRI,SAN FRANCISCO,4153928800,CA,127 ELLIS ST.,94102
HOTEL COUNCIL OF SAN FRANCISCO,SAN FRANCISCO,4153915197,CA,"323 GEARY ST., STE. 405",94102
HOTEL DRISCO,SAN FRANCISCO,4153462880,CA,2901 PACIFIC AVE.,94115
"HOUSE OF T. - PHOTOGRAPHY, MARKETING &AMP; DESIGN.",VACAVILLE,4157469511,CA,PO BOX 39,95696
"HOWLIVE, INC.",HALF MOON BAY,6502192333,CA,"80 CABRILLO HWY., Q155",94019
HUNGRY KITCHENS,SAN FRANCISCO,4153611391,CA,"2021 FILLMORE ST., STE. 1212",94115
HWC HEALTH &AMP; WELLNESS CHANNEL,MIAMI,8005605148118,FL,"3470 EAST COAST AVE., STE. 501",33137
HYATT REGENCY SAN FRANCISCO,SAN FRANCISCO,4157881234,CA,FIVE EMBARCADERO CENTER,94111
IATSE LOCAL 16,SAN FRANCISCO,4154416400,CA,"240 SECOND ST., 1ST FLR.",94105
ICHI-V,OAKLAND,4153086234,CA,407 EUCLID AVE.,94610
IDEAS EVENTS &AMP; RENTALS,SAN FRANCISCO,4155588900,CA,"1055 CALIFORNIA ST, SUITE 2",94108
"IGIGI, INC.",SAN FRANCISCO,4156925647,CA,267 EIGHTH ST.,94103
IHORIZ.COM,MONTARA,6507287716,CA,1330 CEDAR STREET,94037
IMPACT DRIVEN BUSINESS LLC,DISCOVERY BAY,6506607071,CA,834 BLUE MESA CT.,94505
"IN HAUSE PRESS, LLC",SAN FRANCISCO,4152380764,CA,"363 22ND AVE., #2",94121
INDOFF BUSINESS AND PROMOTIONAL PRODUCTS,,4152902008,,,
INDUSTRIOUS,SAN FRANCISCO,4155938360,CA,"345 CALIFORNIA ST., SUITES 600 &AMP; 700",94104
INGKA CENTRES SAN FRANCISCO LLC,SAN FRANCISCO,6289461414,CA,945 MARKET STREET,94103
INN AT GOLDEN GATE,SAN FRANCISCO,4155672425,CA,2707 LOMBARD ST.,94123
"INSPERITY, INC.",WALNUT CREEK,8778549566,CA,"2999 OAK RD., STE. 200",94597
INSTACART,SAN FRANCISCO,8882467822,CA,,
INTERNATIONAL AGRIBUSINESS COUNCIL (IAC),WASHINGTON,2028084737,DC,"1250 CONNECTICUT AVE. NW, SUITE 700",20036-2657
INTERNATIONAL BROTHERHOOD OF ELECTRICAL WORKERS - LOCAL 6,SAN FRANCISCO,4158615752,CA,55 FILLMORE ST.,94117
ISLY HANDBAGS,SAN FRANCISCO,4156527149,CA,,
ISSO SAN FRANCISCO,SAN FRANCISCO,4158650969,CA,3608 19TH ST.,94110
ITSELECTRIC,BROOKLYN,9175132488,NY,"NEWLAB, 19 MORRIS AVE.",11205
IVY PARK AT CATHEDRAL HILL,SAN FRANCISCO,4159211552,CA,1550 SUTTER ST.,94109
J. F. FITZGERALD COMPANY,SAN FRANCISCO,4156486161,CA,2750 19TH ST.,94110
J. RUSTEN FURNITURE STUDIO,SAN FRANCISCO,4082399004,CA,2815 23RD ST.,94110
"JAMES W. HAAS, ATTORNEY AT LAW",SAN FRANCISCO,4152855048,CA,"100 VAN NESS AVE., #1906",
JAPANTOWN COMMUNITY BENEFIT DISTRICT,SAN FRANCISCO,4152655207,CA,"1674 POST ST., STE. 2",94115
JEFFREY&#39;S NATURAL PET FOODS,SAN FRANCISCO,4158641414,CA,284 NOE ST.,94114
JIN WANG,SAN FRANCISCO,4153979111,CA,"300 GRANT AVE., PENTHOUSE",94108
JOBSNOW! (HUMAN SERVICES AGENCY),SAN FRANCISCO,8775621669,CA,3120 MISSION ST.,94110
JONATHAN KOVACEVB,SAN FRANCISCO,5713182888,CA,412 GREEN STREET,94133
JOSHU+VELA,SAN FRANCISCO,5107087936,CA,3042 16TH ST.,94103
"JOVIE OF SAN FRANCISCO, LOS GATOS AND THE EAST BAY",WALNUT CREEK,4154328346,CA,1501 N. BROADWAY,94596
JPMORGAN CHASE &AMP; CO.,SAN FRANCISCO,4153155000,CA,560 MISSION ST.,94105
JUJU BY SARAH,SAN FRANCISCO,4158717272,CA,"160 CENTRAL AVE., UNIT 1",94117
JUNIOR ACHIEVEMENT,WALNUT CREEK,9254651068,CA,"1212 BROADWAY PLAZA, SUITE 2100",94596
JVS,SAN FRANCISCO,4153913600,CA,"548 MARKET STREET, PMB 37733",94104
JW MARRIOTT SAN FRANCISCO UNION SQUARE,SAN FRANCISCO,4157718600,CA,515 MASON ST.,94102
KAISER PERMANENTE MEDICAL CENTER,SAN FRANCISCO,4155126000,CA,4141 GEARY BLVD.,94118
KAUFHOLD GASKIN GALLAGHER LLP,SAN FRANCISCO,4156328188,CA,485 PACIFIC AVENUE,94133
KENDRA RENEE JEWELRY DESIGN,SAN FRANCISCO,4155133599,CA,"1025 OAK ST., STE. B",94117
KENNEDY/JENKS CONSULTANTS,SAN FRANCISCO,4152432150,CA,"303 SECOND ST., STE. 300 SOUTH",94107
KIDDER MATHEWS,SAN FRANCISCO,4152298888,CA,"101 MISSION ST., STE. 1800",94105
KIKA&#39;S TREATS,SAN FRANCISCO,4152822020,CA,"2565 THIRD ST., STE. 312",94107
KILROY REALTY CORPORATION,SAN FRANCISCO,4157785660,CA,"100 FIRST ST., STE. 250",94105
KINKARACO,SAN FRANCISCO,4158749698,CA,126 PRECITA AVE.,94110
KIRSTEN MUENSTER JEWELRY,SAN FRANCISCO,3104474546,CA,,
KOKKARI ESTIATORIO,SAN FRANCISCO,4159810983,CA,200 JACKSON ST.,94111
KOREA STANDARD ASSOCIATION,,,,,
KPMG LLP,SAN FRANCISCO,4159635100,CA,"55 SECOND ST., STE. 1400",94105
KRON 4,SAN FRANCISCO,4154414444,CA,900 FRONT ST.,94111-1427
KTSF 26,BRISBANE,4154682626,CA,100 VALLEY DR.,94005
KUSCHEL &AMP; COMPANY DBA AMY KUSCHEL LLC,SAN FRANCISCO,4159565657,CA,"23 GRANT AVE., 5TH &AMP; 6TH FLOORS",94108
KYLER DESIGNS,SAN FRANCISCO,4157549089,CA,"2370 MARKET ST., #245",94124
L&#39;AMOURETTE,SAN FRANCISCO,4156710915,CA,1105 REVERE AVE.,94124
L.T. BOWDRIX,SAN FRANCISCO,4159227777,CA,2211 BRODERICK ST.,94115
LANIE ABANO CABINETS,SAN FRANCISCO,4152820600,CA,717 VERMONT ST.,94107
"LATTICESTIX, INC.",SAN FRANCISCO,8885287849,CA,1615 JERROLD AVE.,94124
"LAW OFFICE OF ANTONIO P. GARCIA, JR.",SAN FRANCISCO,4156353515,CA,"580 CALIFORNIA STREET, SUITE 1600",94104
LEADBETTER&#39;S BAKE SHOP,SAN FRANCISCO,4152820105,CA,"2565 THIRD ST., STE. 308",94107
LEADERSHIP SAN FRANCISCO,SAN FRANCISCO,4153528826,CA,"235 MONTGOMERY ST., STE. 760",94104
LEEMAH ELECTRONICS INC.,BRISBANE,4153941288,CA,155 SOUTH HILL DR.,94005
LEFTWICH EVENT SPECIALISTS INC.,SAN FRANCISCO,4154099522,CA,244 DORLAND STREET,94114
"LELAND, PARACHINI, STEINBERG, MATZGER &AMP; MELNICK, LLP",SAN FRANCISCO,4159571800,CA,"135 MAIN ST., SUITE 1200",94105
LEMON TWIST,SAN FRANCISCO,4152972423,CA,3418 25TH ST.,94110
LEVO LEAGUE,SAN FRANCISCO,,CA,2762 OCTAVIA ST.,94123
LIFE LEARNING ACADEMY,SAN FRANCISCO,4153978957,CA,"654 8TH ST., TREASURE ISLAND",94130
LIGHTHOUSE PUBLIC AFFAIRS,SAN FRANCISCO,4153640000,CA,857 MONTGOMERY ST.,94133
LILY SAMII COLLECTION,SAN FRANCISCO,4154459505,CA,"210 POST ST., STE. 803",94108
LINKEDIN CORPORATION,SUNNYVALE,6509623127,CA,1000 W MAUDE AVE.,94085
"LIVE GOOD, INC.",IRVINE,4153594810,CA,2603 MAIN STREET,92614
LOCAL BREWING CO.,SAN FRANCISCO,4159326702,CA,69 BLUXOME ST.,94107
LOVE &AMP; LUXE!,SAN FRANCISCO,4156487781,CA,1169 VALENCIA ST.,94110
LUMA HOTEL SF,SAN FRANCISCO,4152669999,CALIFORNIA,100 CHANNEL ST.,94158
LYFT,SAN FRANCISCO,,CA,"185 BERRY ST., STE. 5000",94107
MACKENZIE,SAN FRANCISCO,4154030800,CA,"275 BATTERY ST., STE. 900",94111
MACY&#39;S,SAN FRANCISCO,4153973333,CA,170 O&#39;FARRELL ST.,94102
MADE IN THE HAIGHT,SAN FRANCISCO,4154205239,CA,PO BOX 170533,94117
MARC SASON,,4153429193,,,
MARCH CAPITAL MANAGEMENT,SAN FRANCISCO,4156523080,CA,3456 SACRAMENTO ST.,94118
MARINA SECURITY SERVICES,SAN FRANCISCO,4157732300,CA,"465 CALIFORNIA ST., STE. 626",94104
MARKET STREET RAILWAY,SAN FRANCISCO,4159560472,CA,"870 MARKET ST., STE. 803",94102
MARTIN AND MAGPIE,SAN FRANCISCO,4155058914,CA,,
MCCALLS CATERING &AMP; EVENTS,SAN FRANCISCO,4155528550,CA,1798 BRYANT ST.,94110
MEALS ON WHEELS,SAN FRANCISCO,4159201111,CA,2142 JERROLD AVE.,94124
MEDIA SOLUTIONS,SAN FRANCISCO,4156651077,CA,1128 IRVING ST.,94122
MENIKHEIM PROMO SOLUTIONS,SAN FRANCISCO,8882922935,CA,716 9TH AVENUE,94118
META PLATFORMS INC.,SAN FRANCISCO,,CA,181 FREMONT ST.,94105
METAPHOR ORGANIC LLC,OAKLAND,4157079334,CA,6812 MACARTHUR BLVD.,94608
MICROSOFT CORPORATION,SAN FRANCISCO,4159726400,CA,"555 CALIFORNIA ST., STE. 200",94104
MID MARKET COMMUNITY BENEFIT DISTRICT,SAN FRANCISCO,4159575985,CA,"1182 MARKET STREET, SUITE 213",94102
MIJO &AMP; BAMBI,SAN FRANCISCO,4155528660,CA,PO BOX 14321,94114
MISCHLER FINANCIAL GROUP INC.,CORONA DEL MAR,4159090184,CA,"1111 BAYSIDE DR., SUITE 100",92625
MISSION BAY DEVELOPMENT GROUP,SAN FRANCISCO,4153556600,CA,"401 TERRY A. FRANCOIS BLVD., SUITE 122",94158
MISSION MOTORS,SAN FRANCISCO,4152257335,CA,1177 HARRISON ST.,94103
MISSION STANDS,SAN FRANCISCO,4159386785,CA,941 CAPP ST.,94110
MORTON&#39;S THE STEAKHOUSE,SAN FRANCISCO,4159865830,CA,400 POST ST.,94102
MOSAIC GLOBAL TRANSPORTATION,SAN JOSE,8003987881,CA,525 SUNOL ST.,95126
MOXION,RICHMOND,,CA,"1414 HARBOUR WAY S, SUITE 1201",94804
MUSEUM MANAGEMENT CONSULTANTS,SAN FRANCISCO,4159827804,CA,86 ROSSI AVE.,94118
NAIOP SAN FRANCISCO BAY AREA,SAN FRANCISCO,4153699625,CA,"575 MARKET ST., STE. 2125",94105
NANA JOES GRANOLA,SAN FRANCISCO,4155192457,CA,3606 IRVING ST.,94122
NATIONAL APPAREL LLC,SAN FRANCISCO,4157018230,CA,"1061 MARKET ST., 3RD FLR.",94103
NATIONAL CHARTER BUS SAN FRANCISCO,SAN FRANCISCO,4152267853,CA,MISSION DISTRICT,94110
NBC BAY AREA/TELEMUNDO 48,SAN JOSE,4084326221,CA,2450 NORTH FIRST ST.,95131
NECTAR ESSENCES,SAN FRANCISCO,4152951539,CA,112 WALNUT ST.,94118
NEKTAR THERAPEUTICS,SAN FRANCISCO,4154825300,CA,455 MISSION BAY BLVD. SOUTH,94158
NEO COCOA,SAN FRANCISCO,6507668431,CA,,
NETHERLANDS CONSULATE OF SAN FRANCISCO,SAN FRANCISCO,4152912033,CA,"120 KEARNY ST., STE. 3100",94107
NEW DEAL ADVISERS,SAN FRANCISCO,4154189693,CA,"244 KEARNY ST., 9TH FLOOR",94108
NEW DOOR VENTURES,SAN FRANCISCO,4159709200,CA,3221 20TH ST.,94110
"NEW FACTORY, FRIEND",SAN FRANCISCO,4152180822,CA,37 CLIPPER ST.,94114
NEWFRONT (FORMERLY ABD),SAN FRANCISCO,6502413817,CA,"450 SANSOME ST., STE. 300",94111
NFINITY CELLARS,SAN FRANCISCO,4153858431,CA,,
NIBBI BROTHERS GENERAL CONTRACTORS,SAN FRANCISCO,4158631820,CA,"1000 BRANNAN ST., STE. 102",94102
NICE COLLECTIVE,SAN FRANCISCO,4158246426,CA,2544 THIRD ST.,94107
NIXON PEABODY LLP,SAN FRANCISCO,4159848200,CA,"ONE EMBARCADERO CENTER, 32ND FLR.",94111
NOMAD DESIGN,SAN FRANCISCO,4153571509,CA,,
NOOWORKS,SAN FRANCISCO,4152794705,CA,395 VALENCIA ST.,94103
NOR CAL CARPENTERS UNION,OAKLAND,5104309706,CA,"265 HEGENBERG RD., STE. 200",94621
NORTH BEACH PIPELINE,SAN FRANCISCO,4159145916,CA,1335 GRANT AVE.,94133
NORTHERN PENINSULA PROPERTIES INC.,SAN FRANCISCO,4153178339,CA,"1559 SLOAT STREET, B-230",94132
NOSH THIS,SAN FRANCISCO,4155709701,CA,"830 HAYES ST., #201",94117
NOVODECO LLC,,4155337373,,,
NOZOMI NETWORKS,SAN FRANCISCO,8003146114,CA,"575 MARKET ST., STE. 3650",94105
OFFICE DEPOT BUSINESS SERVICES DIVISION,SAN FRANCISCO,4153565701,CA,"303 SECOND ST., SOUTH TOWER, STE. 450",94107
OGLETREE DEAKINS,SAN FRANCISCO,4154424810,CA,"ONE EMBARCADERO CENTER, SUITE 900",94111
OKIE MEDIA,TUSTIN,7147423639,CA,2857 PLAYER LANE,92782
"P.G. MOLINARI &AMP; SONS, INC.",SAN FRANCISCO,4158225555,CA,1401 YOSEMITE AVE.,94124
PACIFIC GAS AND ELECTRIC COMPANY,SAN FRANCISCO,8007435000,CA,PO BOX 770000,94177
PANORAMA BAKING COMPANY,SAN FRANCISCO,4155225000,CA,500 FLORIDA ST.,94110
PARNASSUS INVESTMENTS,SAN FRANCISCO,4157780200,CA,"ONE MARKET, STEUART TOWER, #1600",94105
PARSA MOHEBI HAIR RESTORATION,SAN FRANCISCO,4159976126,CA,1 MISSISSIPPI STREET,94107
PASTE,SAN FRANCISCO,4157608278,CA,"916 KEARNY ST., RM. 502",94133
PAUL&#39;S HAT WORKS,SAN FRANCISCO,4152215332,CA,6128 GEARY BLVD.,94121
PAULCITY HEIRLOOM LEATHER,SAN FRANCISCO,3233095080,CA,"1466 SAN BRUNO AVE., STE. 4",94110
PEACOCK PARTNERSHIPS LLC,SAN FRANCISCO,4153202205,CA,1773 QUESADA AVENUE,94124
PEAK DESIGN LLC,SAN FRANCISCO,,CA,357 TEXAS ST.,94107
PEGGY LI CREATIONS,SAN FRANCISCO,4153507503,CA,2779 FOLSOM STREET,94110
PET CAMP,SAN FRANCISCO,4152820700,CA,525 PHELPS ST.,94124
PHOENIX DAY,SAN FRANCISCO,4158224414,CA,1355 DONNER AVE.,94124
PIECE X PIECE,SAN FRANCISCO,4156855789,CA,"2325 THIRD ST., STE. 220",94107
PIER 39,SAN FRANCISCO,4157055500,CA,"PIER 39, BEACH STREET &AMP; THE EMBARCADERO",94133
PIER MARKET SEAFOOD RESTAURANT,SAN FRANCISCO,4159897437,CA,"PIER 39, SPACE 103",94133
PILLSBURY WINTHROP SHAW PITTMAN LLP,SAN FRANCISCO,4159831000,CA,"FOUR EMBARCADERO CENTER, 22ND FLR.",94111
PK WEALTH MANAGEMENT,SAN FRANCISCO,4157444124,CA,708 MONTGOMERY ST.,94111
PLADRA,SAN FRANCISCO,6507147135,CA,PO BOX 472142,94147
PLATINUM ADVISORS,SAN FRANCISCO,4159551100,CA,"535 MISSION STREET, 16TH FLOOR",94105
PNC BANK,SAN FRANCISCO,4155124821,CA,"201 MISSION STREET, 25TH FLOOR",94105
POCO DOLCE CONFECTIONS,SAN FRANCISCO,4152551443,CA,2419 THIRD ST.,94107
POLLO CAMPERO,SAN FRANCISCO,9727702800,CA,155 JEFFERSON ST,94133
POMO NATION WINE GROUP,SANTA ROSA,7077560492,CA,107 HEATHER DR.,95401
POPPY BANK,SAN FRANCISCO,4157976231,CA,1750 FULTON ST.,94117
PORT OF SAN FRANCISCO,SAN FRANCISCO,4152740400,CA,PIER 1,94111
POSH ELECTRIC,HAYWARD,6285024474,CA,"3501 BREAKWATER CT., UNIT A",94545
PRADO GROUP,SAN FRANCISCO,4153950880,CA,"150 POST ST., STE. 320",94108
PREMIER NANNY SOURCE,SAN FRANCISCO,4158761830,CA,580 CALIFORNIA STREET,94104
PRESIDIO TRUST,SAN FRANCISCO,4155615300,CA,1750 LINCOLN BLVD.,94129
PREZI,SAN FRANCISCO,4153988012,CA,"633 FOLSOM ST., 5TH FLR.",94107
PRICEWATERHOUSECOOPERS,SAN FRANCISCO,4154985000,CA,"405 HOWARD ST., STE. 600",94105
PRIORITY ARCHITECTURAL GRAPHICS,SAN FRANCISCO,4156431144,CA,1260 EGBERT AVE.,94124
PROACTIVE NETWORK CONSULTING,SAN FRANCISCO,4156255500,CA,"855 FOLSOM ST., #108",94107
PROGRESS PUBLIC AFFAIRS,SAN FRANCISCO,,CA,"291 GEARY ST., SUITE 510",94102
PROJECT GREENBAG LLC,SAN FRANCISCO,4157421188,CA,"2200 MARKET ST., #304",94114
PULSE CHECK 101,SAN FRANCISCO,6502701957,CA,1300 EVANS AVE. STE. 30 #883773,94188
Q &AMP; A CONSULTING LLC,SAN FRANCISCO,4155217552,CA,ONE SANSOME ST FL 35 PMB 6023,94104
QATAR AIRWAYS,NEW YORK,3109200722,NY,"350 5TH AVE., SUITE 7630",10118
QTV RENTAL,REDWOOD CITY,3104350278,CA,222 ALAMEDA DE LAS PULGAS,94062
QUEEN ANNE HOTEL,SAN FRANCISCO,4154412828,CA,1590 SUTTER STREET,94109
RAG DOLL DESIGNS,SAN FRANCISCO,4156950201,CA,3927 24TH ST.,94114
RAINSTICK,,,,,
RAISSA BUMP JEWELRY &AMP; KNITWEAR,SAN FRANCISCO,4154072154,CA,2441 BALBOA ST.,94121
RAPHAEL CYCLES,SAN FRANCISCO,4157638427,CA,570 1/2 SHOTWELL ST.,94110
RE:TOLD PRODUCTIONS,SAN FRANCISCO,2096485390,CA,,94133
REBECCA OVERMANN,SAN FRANCISCO,4155057043,CA,"1890 BRYANT ST., STE. 314",94110
REBECCA SAKO,SAN FRANCISCO,4159020304,CA,2521 19TH ST.,94110
RECOLOGY,SAN FRANCISCO,4158751000,CA,"50 CALIFORNIA ST., 24TH FLR.",94111
RECYCLED GLASSWORKS,SAN FRANCISCO,4156415610,CA,238 BONVIEW ST.,94110
RED BAY COFFEE,OAKLAND,5103992441,CA,3136 INTERNATIONAL BLVD.,94601
REDF,SAN FRANCISCO,4155616677,CA,"785 MARKET ST., STE. 1200",94103
REDWOOD CREDIT UNION,SAN FRANCISCO,8004797928,CA,1390 MARKET ST.,94102
REGROW AG,DURHAM,2173770696,NH,87 PACKERS FALL ROAD,03824
"REMEDY EDITORIAL, LLC",SAN FRANCISCO,4152551650,CA,1136 HOWARD ST.,94103
RESTAURANT NISEI,SAN FRANCISCO,4158276898,CA,2316 POLK ST.,94109
RICKSHAW BAGWORKS,SAN FRANCISCO,4159048368,CA,904 22ND ST.,94107
RISTOBAR,SAN FRANCISCO,4159247478,CA,2300 CHESTNUT ST.,94123
RITUAL COFFEE,SAN FRANCISCO,4156411024,CA,1026 VALENCIA ST.,94110
ROCKSTEADY JEWELRY CO.,SAN FRANCISCO,,CA,"1592 UNION ST., #176",94123
ROGUE FEDERATION,SAN FRANCISCO,4153142146,CA,"1 RAUSCH ST., STE. B",94103
ROYAL DANISH CONSULATE,SACRAMENTO,9164489688,CA,"ONE CAPITOL MALL, STE. 670",95814
RSM US LLP,SAN FRANCISCO,4158485300,CA,"44 MONTGOMERY ST., STE. 3900",94104
RUBISSOW,NAPA,7072538605,CA,PO BOX 450,94559
RUFFLES ART STUDIO,SAN FRANCISCO,4156029622,CA,825 PERALTA AVE.,
SACRED HEART CATHEDRAL PREPARATORY,SAN FRANCISCO,4157726626,CA,1055 ELLIS ST.,94109
SAFEWAY INC.,PLEASANTON,9254673000,CA,5918 STONERIDGE MALL RD.,94588
SAFFRON RARE THREADS,SAN FRANCISCO,4154337233,CA,,
"SAINT FRANCIS MEMORIAL HOSPITAL, A DIGNITY HEALTH MEMBER",SAN FRANCISCO,4153536000,CA,900 HYDE ST.,94109
"SAL DE VIDA GOURMET, LLC",SAN FRANCISCO,4156824313,CA,2948 FOLSOM ST.,94110
SALESFORCE,SAN FRANCISCO,4159017000,CA,415 MISSION ST.,94105
SAN FRANCICO MARRIOTT FISHERMAN&#39;S WHARF,SAN FRANCISCO,4157757555,CA,1250 COLUMBUS AVE.,94133
SAN FRANCISCO 49ERS,SANTA CLARA,4085624949,CA,4949 MARIE P. DEBARTOLO WAY,95054
SAN FRANCISCO AFRICAN AMERICAN CHAMBER OF COMMERCE,SAN FRANCISCO,4157496400,CA,"1485 BAYSHORE BLVD., SUITE 427, BOX 158",94124
SAN FRANCISCO APARTMENT ASSOCIATION,SAN FRANCISCO,4152552288,CA,265 IVY ST.,94102
SAN FRANCISCO ASSOCIATION OF REALTORS,SAN FRANCISCO,4154318500,CA,301 GROVE ST.,94102
SAN FRANCISCO BAY FERRY,SAN FRANCISCO,4152913377,CA,"PIER 9, STE. 111, THE EMBARCADERO",94111
SAN FRANCISCO BUSINESS TIMES,SAN FRANCISCO,4159892522,CA,"275 BATTERY ST., STE. 600",94111
SAN FRANCISCO CENTER FOR ECONOMIC DEVELOPMENT (SFCED),SAN FRANCISCO,,CA,"235 MONTGOMERY ST., STE. 760",94104
SAN FRANCISCO CENTRE,SAN FRANCISCO,4155126776,CA,"865 MARKET ST., BOX A",94103
SAN FRANCISCO CHAMBER OF COMMERCE,SAN FRANCISCO,4153924520,CA,"235 MONTGOMERY ST., STE. 760",94104
SAN FRANCISCO CHRONICLE,SAN FRANCISCO,4157771111,CA,901 MISSION ST.,94103
SAN FRANCISCO CITY HALL WEDDING PHOTOGRAPHY,SAN FRANCISCO,5104595799,CA,"100 PINE ST., STE. 1250-450",94111
SAN FRANCISCO DENTAL SOCIETY,SAN FRANCISCO,4159287337,CA,2143 LOMBARD ST.,94123
SAN FRANCISCO ELECTRICAL CONTRACTORS ASSOCIATION,SAN FRANCISCO,4157038333,CA,555 GOUGH ST.,94102
SAN FRANCISCO FEDERAL CREDIT UNION,SAN FRANCISCO,4157755377,CA,770 GOLDEN GATE AVE.,94102
SAN FRANCISCO FLOWER MART LLC,SAN FRANCISCO,4153927944,CA,640 BRANNAN ST.,94107
SAN FRANCISCO GIANTS BASEBALL CLUB,SAN FRANCISCO,4159722000,CA,"ORACLE PARK, 24 WILLIE MAYS PLAZA",94107
SAN FRANCISCO INTERNATIONAL AIRPORT,SAN FRANCISCO,6508215000,CA,PO BOX 8097,94128
SAN FRANCISCO MARIN MEDICAL SOCIETY,SAN FRANCISCO,4155610850,CA,"312 SUTTER ST., SUITE 608",94108
SAN FRANCISCO OPERA,SAN FRANCISCO,4158614008,CA,301 VAN NESS AVE.,94102
SAN FRANCISCO PARKS ALLIANCE,SAN FRANCISCO,4156213260,CA,1074 FOLSOM STREET,94103
SAN FRANCISCO PUBLIC UTILITIES COMMISSION,SAN FRANCISCO,4155513000,CA,"525 GOLDEN GATE AVE., 13TH FLR.",94102
"SAN FRANCISCO SAFE, INC.",SAN FRANCISCO,4155531984,CA,"850 BRYANT ST., STE. 135",94103
SAN FRANCISCO SCOTTISH RITE MASONIC CENTER,SAN FRANCISCO,4156644700,CA,2850 19TH AVE.,94132
SAN FRANCISCO STATE UNIVERSITY,SAN FRANCISCO,4153382517,CA,1600 HOLLOWAY AVE.,94132
SAN FRANCISCO SYMPHONY,SAN FRANCISCO,4155528000,CA,201 VAN NESS AVE.,94102
SAN FRANCISCO TRAVEL ASSOCIATION,SAN FRANCISCO,4159746900,CA,"ONE FRONT ST., STE. 2900",94111
SAN FRANCISCO UNIFIED SCHOOL DISTRICT,SAN FRANCISCO,4152416121,CA,"555 FRANKLIN ST., 3RD FLOOR",94102
SAN FRANCISCO ZOOLOGICAL SOCIETY,SAN FRANCISCO,4157537080,CA,1 ZOO ROAD,94132
SARAH GRAHAM METALSMITHING,SAN FRANCISCO,4156265250,CA,"2415 THIRD ST., STE. 258",94107
SCHEIDEGGER TRADING CO. INC.,SAN FRANCISCO,4153973837,CA,"351 CALIFORNIA ST., STE. 930",94104-2429
SCOMA&#39;S RESTAURANT,SAN FRANCISCO,4157714383,CA,1965 AL SCOMA WAY,94133
"SD MAYER &AMP; ASSOCIATES, LLP",SAN FRANCISCO,4156914040,CA,"235 MONTGOMERY ST., 30TH FLR.",94104
"SEE&#39;S CANDIES, INC.",SO. SAN FRANCISCO,6505837307,CA,210 EL CAMINO REAL,94080
SEGAL COMMUNICATIONS,SAN FRANCISCO,9178683396,CA,"560 PINE ST., SUITE 700",94108
SEMILLITAS DAYCARE,SAN FRANCISCO,4152314581,CA,771 CAPP STREET,94110
SEQUOIA COMMERCIAL GROUP,SAN FRANCISCO,4156088409,CA,3595 BALBOA ST.,94121
SF EVENT SPACE - THE HIBERNIA BANK,SAN FRANCISCO,4159401180,CA,1 JONES STREET,94102
SF LGBT CENTER,SAN FRANCISCO,4158655555,CA,1800 MARKET ST.,94102
SF METALWORKS,SAN FRANCISCO,4152069100,CA,1559 CUSTER AVE.,94124
SF-MARIN LAWYER REFERRAL &AMP; INFORMATION SERVICE,SAN FRANCISCO,4159891616,CA,"201 MISSION ST., STE. 400",94105
SFJAZZ,SAN FRANCISCO,4153985655,CA,201 FRANKLIN ST.,94102
SFMADE,SAN FRANCISCO,4154085605,CA,"150 HOOPER ST., UNIT 200",94107
SHARON ZIMMERMAN DESIGN,SAN FRANCISCO,4154865873,CA,850 FILBERT ST.,94133
SHE.HER,SAN FRANCISCO,4152548432,CA,2108 SUTTER STREET,94115
SHORENSTEIN COMPANY LLC,SAN FRANCISCO,4157727000,CA,"235 MONTGOMERY ST., 16TH FLR.",94104
"SHWIFF, LEVY &AMP; POLO, LLP",SAN FRANCISCO,4152918600,CA,"433 CALIFORNIA ST., STE. 1000",94104-4230
SIEBER PLASTIC SURGERY,SAN FRANCISCO,4159159000,CA,"450 SUTTER ST., STE. 2630",94108
SIMPLE,SAN FRANCISCO,4154947889,CA,1001 STANYAN ST.,94117
SIMPLI.FI,FORT WORTH,4159990697,TX,"128 EAST EXCHANGE AVE., SUITE 700",76164
"SINGER ASSOCIATES, INC.",SAN FRANCISCO,4152279700,CA,"47 KEARNY ST., 2ND FLR.",94108
SINTO GOURMET,SAN FRANCISCO,4156940832,CA,"77 VAN NESS AVE., STE. 708",94102
"SKIDMORE, OWINGS &AMP; MERRILL LLP",SAN FRANCISCO,4159811555,CA,"ONE FRONT ST., 24TH FLR.",94111
SKIN ON SKINS CUSTOM LEATHER,SAN FRANCISCO,4156082690,CA,787 BRANNAN ST.,94103
SKYSTAR LLC,SAN FRANCISCO,8332697827,CA,2860 TAYLOR STREET,94111
SMACK HAPPY DESIGN,SAN FRANCISCO,4158145885,CA,3150 18TH ST #359,94110
SMALL BUSINESS ADMINISTRATION - SAN FRANCISCO DISTRICT OFFICE,SAN FRANCISCO,4157446820,CA,"455 MARKET ST., STE. 600",94105
"SMALL BUSINESS EXCHANGE, INC.",SAN FRANCISCO,4157786250302,CA,"795 FOLSOM ST., 1ST FLR.",94107
SMP - STANDARD METAL PRODUCTS,SAN FRANCISCO,4155466784,CA,558 BRYANT ST.,94107
"SNAPFIESTA, INC.",SOUTH SAN FRANCISCO,4155952752,CA,341 GARDENSIDE AVE.,94080
SOMA PRECISION,EMERYVILLE,4155285950,CA,6287 DOYLE ST.,94608
SONAS DENIM,SAN FRANCISCO,4156919865,CA,"2404 CALIFORNIA ST., STE. 4",94115
SONIC,SANTA ROSA,8887664233,CA,2260 APOLLO WAY,95407-9113
SONOMA VALLEY VINTNERS &AMP; GROWERS ALLIANCE,SONOMA,7079350803,CA,P.O. BOX 1698,95476
SONOMA VALLEY VISITORS BUREAU,SONOMA,7079961090,CA,453 FIRST STREET EAST,95476
SOUTHWEST AIRLINES,SAN JOSE,8664320939,CA,"88 S. THIRD ST., STE. 237",95113
"SPAN.IO, INC.",SAN FRANCISCO,4155988578,CA,679 BRYANT STREET,94107
SPICER BAGS,SAN FRANCISCO,4157011955,CA,"2415 THIRD ST., STE. 257",94107
SPIN SAN FRANCISCO,SAN FRANCISCO,4156920259,CA,"690 FOLSOM ST., STE.100",94107
SPOT ON PRODUCTIONS,,9253818076,,,
SPUR,SAN FRANCISCO,4157818726,CA,654 MISSION ST.,94105
SS JEREMIAH O&#39;BRIEN,SAN FRANCISCO,4155440100,CA,"PIER 35 NORTH, THE EMBARCADERO",94133
"ST. MARY&#39;S MEDICAL CENTER, A DIGNITY HEALTH MEMBER",SAN FRANCISCO,4157505798,CA,450 STANYAN ST.,94117-1079
STANFORD COURT,SAN FRANCISCO,4159893500,CA,905 CALIFORNIA ST.,94108
STANFORD FEDERAL CREDIT UNION,PALO ALTO,6507851078,CA,1860 EMBARCADERO RD.,94303
STARBOARD COMMERCIAL REAL ESTATE,SAN FRANCISCO,4157656900,CA,"44 MONTGOMERY ST., STE. 1650",94104
STARBUCKS COFFEE COMPANY,SAN FRANCISCO,4155377206,CA,"60 SPEAR ST., 7TH FLR.",94105
START SMALL THINK BIG,SAN JOSE,6467234053,CA,"2880 ZANKER RD., 2ND FLR.",95134
STIIIZY MISSION,SAN FRANCISCO,4157876006,CA,3326 MISSION ST.,94110
STITCH,SAN FRANCISCO,4156416081,CA,1375 SANCHEZ ST.,94131
STK STEAKHOUSE,SAN FRANCISCO,3479470930,CA,ONE MARKET STREET,94105
STONE VALENTINE,SAN FRANCISCO,4152796585,CA,758 44TH AVE.,94121
STONESTOWN GALLERIA,SAN FRANCISCO,4155648848,CA,"3251 20TH AVE., STE. 300",94132
STRANGE RX PRODUCTIONS,SAN FRANCISCO,4157948949,CA,"1044 STANYAN ST., #4",
STRATEGIES 360,SACRAMENTO,5304009061,CA,"555 CAPITOL MALL, STE. 1245",95814
STRAUS EVENTS,SAN FRANCISCO,4153772327,CA,901 MISSION ST.,94103
STRIPE,SAN FRANCISCO,,CA,510 TOWNSEND ST.,94103
STUDIO HEIMAT,SAN FRANCISCO,4156709822,CA,455 10TH ST.,94103
STUDIOPATRO,SAN FRANCISCO,4157753432,CA,2830 LYON ST.,94123
SUFFOLK CONSTRUCTION COMPANY,SAN FRANCISCO,4158480500,CA,"525 MARKET ST., STE. 2850",94105
SUN ICE ENERGY,SINGAPORE,,,16 ENTERPRISE ROAD,627699
SUNSET PIPELINE,SAN FRANCISCO,,CA,2161 IRVING ST.,94122
"SUTRO TOWER, INC.",SAN FRANCISCO,4156818850,CA,1 LA AVANZADA ST.,94131
SUTTER HEALTH CPMC,SAN FRANCISCO,4156006000,CA,PO BOX 7999,94120-7999
SWANKETY SWANK,SAN FRANCISCO,4159326615,CA,,
SXSW,AUSTIN,5124677979,TX,PO BOX 685289,78768
"T-MOBILE USA, INC.",SAN FRANCISCO,,CA,,
TABLE ASIA GALLERY,SAN FRANCISCO,4157509955,CA,1101 LAKE ST.,94118
TAIPEI ECONOMIC AND CULTURAL OFFICE IN SAN FRANCISCO (TECO),SAN FRANCISCO,4153627680,CA,"555 MONTGOMERY ST., STE. 501",94111
TARGET CORPORATION,SAN FRANCISCO,,CA,"101 HOWARD ST., STE. 300",94105
"TARO AI, INC.",SAN FRANCISCO,,CA,,
TAYLOR STITCH,SAN FRANCISCO,4843548399,CA,2754 FRANKLIN ST.,94123
TELLASON,LARKSPUR,4159028250,CA,101 MAGNOLIA AVE.,94939
"THE ALLEN GROUP, LLC",SAN FRANCISCO,4155381830,CA,"50 OSGOOD PLACE, SUITE 320",94133
THE AMERICAN CHAMBER OF COMMERCE KYRGYZSTAN,"KYRGYZSTAN, BISHKEK",996312979845,,"ADBRAHMANOVA STREET 191, OFFICE #119",
THE AMERICAN RED CROSS,SAN FRANCISCO,4154278000,CA,1663 MARKET ST.,94103
THE ARC SAN FRANCISCO,SAN FRANCISCO,4152557200,CA,1500 HOWARD ST.,94103
THE ASIA FOUNDATION,SAN FRANCISCO,4159824640,CA,"465 CALIFORNIA ST., 9TH FLR.",94104
THE AXIANT GROUP,SAN FRANCISCO,4153742103,CA,"THREE EMBARCADERO CENTER, SUITE P-3",94111
THE BARNES HOTEL,SAN FRANCISCO,4153977700,CA,225 POWELL STREET,94102
THE BARNES RESTAURANT AND BAR,SAN FRANCISCO,4153977700,CA,225 POWELL ST.,94102
THE CARLISLE - IVY SIGNATURE LIVING,SAN FRANCISCO,4159290200,CA,1450 POST ST.,94109
THE CHAI CART,SAN FRANCISCO,4157281951,CA,"360 GUERRERO ST., #310",94103
THE CHEESE SCHOOL OF SAN FRANCISCO,SAN FRANCISCO,4153467530,CA,"900 NORTH POINT ST., STE. K201",94109
THE CITY CLUB OF SAN FRANCISCO,SAN FRANCISCO,4153622480,CA,"155 SANSOME ST., STE. 950",94104
"THE CLANCY, AUTOGRAPH COLLECTION",SAN FRANCISCO,4159470700,CA,299 SECOND ST.,94105
THE COBBLERS NUMBER TWO,SAN FRANCISCO,4153146516,CA,985 GENEVA AVE.,94112
THE COLORES PAINTING CO INC.,SAN FRANCISCO,4152353155,CA,1298 POTRERO AVENUE,94110
THE COTTAGE TABLE CO.,SAN FRANCISCO,,CA,"635 TEXAS ST., STE. B",94107
THE ESCAPE GAME SAN FRANCISCO,SAN FRANCISCO,4159407808,CA,150 KEARNY STREET,94108
THE ESCAPE GAME SAN FRANCISCO (FISHERMAN&#39;S WHARF),SAN FRANCISCO,4159407808,CA,"145 JEFFERSON ST., SUITE 500",94133
THE FERRY BUILDING,SAN FRANCISCO,4159838001,CA,"ONE FERRY BUILDING, STE. 260",94111
THE FILLMORE,SAN FRANCISCO,4152819250,CA,1805 GEARY BLVD.,94115
THE FREE SPIRITS COMPANY INC.,MILL VALLEY,9175925433,CA,,94941
THE FRUITGUYS,SOUTH SAN FRANCISCO,6502461200,CA,"21 AIRPORT BLVD, SUITE H",94080
THE FUTON SHOP,SAN FRANCISCO,4159206800,CA,2150 CESAR CHAVEZ ST.,94124
THE GREENSPAN CO./ADJUSTERS INTERNATIONAL,SOUTH SAN FRANCISCO,6505834300,CA,"400 OYSTER POINT BLVD., SUITE 519",94080
THE HEARST CORPORATION - S.F. REALTIES DIVISION,SAN FRANCISCO,4157770600,CA,"5 THIRD ST., STE. 200",94103
THE HELMET LOCK,SAN FRANCISCO,4153141222,CA,574 CHESTNUT ST.,94133
THE HOSPITAL COUNCIL,SAN FRANCISCO,4156169990,CA,"235 MONTGOMERY ST., STE. 910",94104
THE JOB FORUM,SAN FRANCISCO,,CA,,
THE JOB SHOP,SAN FRANCISCO,4152278610,CA,"461 2ND ST., STE. C332",94107
THE JUNKLUGGERS,SAN FRANCISCO,4157450881,CA,2315 24TH AVE.,94116
"THE LAWSON ROOFING CO., INC.",SAN FRANCISCO,4152851661,CA,1495 TENNESSEE ST.,94107
THE LIGHTBOX CAFE,SAN FRANCISCO,6505203627,CA,221 MAIN ST.,94015
THE LOVE AND HUMMUS CO.,SAN FRANCISCO,4156465577,CA,"240 DOLORES ST., #214",94103
THE LUXURY MARKETING COUNCIL,SAUSALITO,4153321085,CA,43 CABLE ROADWAY,94965
THE MASONIC,SAN FRANCISCO,4152819250,CA,1111 CALIFORNIA ST.,94108
"THE MITZEL GROUP, LLP",SAN FRANCISCO,4157424972,CA,"44 MONTGOMERY ST., STE. 1660",94104
THE MOSCONE CENTER / ASM GLOBAL,SAN FRANCISCO,4159744000,CA,"747 HOWARD ST., 5TH FLR.",94103
THE PARAMOUNT,SAN FRANCISCO,4152270680,CA,680 MISSION ST.,94105
THE PEARL,SAN FRANCISCO,4152697171,CA,601 19TH ST.,94107
THE PERFECT BEGINNING,SAN FRANCISCO,4156015055,CA,200 ROBINHOOD DR.,94127-1660
THE PHOEBUS COMPANY,SAN FRANCISCO,4155500770,CA,2800 THIRD ST.,94107
"THE RITZ-CARLTON, SAN FRANCISCO",SAN FRANCISCO,4152967465,CA,600 STOCKTON ST.,94108
THE SAN FRANCISCO FOUNDATION,SAN FRANCISCO,4157338500,CA,"ONE EMBARCADERO CENTER, STE. 1400",94111
THE SAN FRANCISCO MUNICIPAL TRANSPORTATION AGENCY (SFMTA),SAN FRANCISCO,4157014500,CA,ONE SOUTH VAN NESS AVE.,94103
THE SF MARKET,SAN FRANCISCO,4155504495,CA,"2095 JERROLD AVE., STE. 212",94124
THE SUTTON LAW FIRM,SAN FRANCISCO,4157327700,CA,"150 POST ST., STE. 405",94108
THE SWIG COMPANY,SAN FRANCISCO,4152911100,CA,"220 MONTGOMERY ST., STE. 950",94104
"THE TUREK CLINIC, INC.",SAN FRANCISCO,4153923200,CA,"450 SUTTER ST., STE. 1708",94108
THE WINERY SF,SAN FRANCISCO,4157358423,CA,30 AVENEUE G,94130
"THEATER 33, LLC",SAN FRANCISCO,4152899979,CA,533 SUTTER ST.,94102
THREE STICKS WINES,SONOMA,7079963328,CA,143 W SPAIN STREET,95476
TISHMAN SPEYER,SAN FRANCISCO,4155361850,CA,"ONE BUSH ST., STE. 500",94104
TMASF CONNECTS,SAN FRANCISCO,4153920210,CALIFORNIA,"244 CALIFORNIA ST., STE. 204",94111
TMG PARTNERS,SAN FRANCISCO,4157725900,CA,"1 POST ST., SUITE 3300",94104
TONIC NIGHTLIFE GROUP,SAN FRANCISCO,4159995053,CA,895 POST ST.,94107
TOURANCE,SAN FRANCISCO,4152527277,CA,"680 EIGHTH ST., STE. 261",94103
TOUTE LA NUIT LOUNGEWEAR,SAN FRANCISCO,4156133326,CA,"1661 TENNESSEE ST., #3E",94107
TPC HARDING PARK,SAN FRANCISCO,4156644690,CA,99 HARDING RD.,94132
TRANSAMERICA RETIREMENT SERVICES,,8008753886,,,
TREASURE ISLAND DEVELOPMENT AUTHORITY,SAN FRANCISCO,4152740660,CA,"ONE AVENUE OF THE PALMS, SUITE 241",94130
TREASURE ISLAND WINES,SAN FRANCISCO,4153949463,CA,"995 NINTH ST., TREASURE ISLAND",94130
"TRI COMMERCIAL REAL ESTATE SERVICES, INC.",SAN FRANCISCO,4152682200,CA,"4 EMBARCADERO CENTER, STE. 1400",94111
TRUCKER HUSS,SAN FRANCISCO,4157883111,CA,"135 MAIN STREET, 9TH FLOOR",94105-1915
TURK+TAYLOR,SAN FRANCISCO,4153365364,CA,"642 CENTRAL AVE., STE. 6",94117
TURKISH AIRLINES,SAN FRANCISCO,4159612398,CA,"ONE SANSOME ST., STE. 810",94104
U-HAUL COMPANY OF SAN FRANCISCO,SAN FRANCISCO,4154683450,CA,500 PAUL AVE.,94124
U.S. BANK - SEAN CROWLEY,SAN FRANCISCO,4155740264,CA,"350 CALIFORNIA ST., 15TH FLR.",94104
U.S. DEPT. OF COMMERCE/INTERNATIONAL TRADE ADMINISTRATION,SAN FRANCISCO,4157052301,CA,"50 FREMONT ST., STE. 2450",94105
U.S. PURE WATER CORP.,NOVATO,4158839900,CA,"20 GALLI DR., STE. E",94949
"UBER TECHNOLOGIES, INC.",SAN FRANCISCO,,CA,1515 3RD ST.,94158
UNION SQUARE ALLIANCE,SAN FRANCISCO,4157817880,CA,"291 GEARY ST., STE. 200",94102
UNITED AIRLINES,SAN FRANCISCO,6506347000,CA,SAN FRANCISCO INTERNATIONAL AIRPORT,94128-7117
UNIVERSAL HOME IMPROVEMENT INC,BELMONT,6506419000,CA,509 MARINE VIEW AVE.,94002
UNIVERSITY OF CALIFORNIA SAN FRANCISCO,SAN FRANCISCO,4154762401,CA,513 PARNASSUS AVE.,94143-0402
UNIVERSITY OF SAN FRANCISCO,SAN FRANCISCO,4154226762,CA,2130 FULTON ST.,94117
"UNIVERSITY OF THE PACIFIC, SAN FRANCISCO CAMPUS",SAN FANCISCO,4154008222,CA,155 FIFTH ST.,94103
URBAN FARMGIRLS,SAN FRANCISCO,4152446254,CA,1584 WALLACE AVE.,94124
URBAN MACHINE,OAKLAND,,CA,1070 40TH ST.,94608
US MARKETING SERVICES,SAN FRANCISCO,4154333565,CA,"101 LOMBARD ST., STE. 704",94111
USO NORTHERN CALIFORNIA,SAN FRANCISCO,6508217613,CA,"SFO AIRPORT, TERMINAL 1, MEZZANINE LEVEL",94128
VALETIC SYSTEMS MANAGEMENT,FRESNO,9517044268,CA,"1060 FULTON ST., SUITE 301",93711
VALUEACT CAPITAL,SAN FRANCISCO,4153623700,CA,"ONE LETTERMAN DR., BLDG. D, 4TH FLR.",94129
VANTAGE REAL ESTATE,SAN FRANCISCO,4157661132,CA,1980 UNION ST.,94123
VARIAN DESIGNS,SAN FRANCISCO,9179150605,CA,2200 PALOU AVE.,94124
"VERITABLE VEGETABLE, INC.",SAN FRANCISCO,4156413500,CA,1100 CESAR CHAVEZ ST.,94124
VERIZON,SAN FRANCISCO,4154174290,CA,360 SPEAR STREET,94105
VIA MEDIA,SAN FRANCISCO,4155528040,CA,,
VINTAGE JOY,SAN FRANCISCO,4153504460,CA,"150 FRANKLIN ST., #201",94102
"VIR BIOTECHNOLOGY, INC.",SAN FRANCISCO,,CA,"499 ILLINOIS ST., STE. 500",94158
VISA INC.,SAN FRANCISCO,4155157728,CA,PO BOX 194607,94119-4607
VITALANT,SAN FRANCISCO,4155676400,CA,555 BUCKINGHAM WAY,94132
VITAS HEALTHCARE,SAN FRANCISCO,4158744400,CA,"1388 SUTTER ST., SUITE 700",94109
WABELLA,SAN FRANCISCO,6502298482,CA,3360 23RD ST.,94110
WALGREEN COMPANY,SAN MATEO,6503481734,CA,151 EAST THIRD AVE.,94401
WALKER DUNHAM CORPORATION,SAN FRANCISCO,4158213070,CA,445 BARNEVELD AVE.,94124
WALKERSHAW CLOTHING/WALKERSHAW MAN,SAN FRANCISCO,4156950590,CA,4010 24TH ST.,94114
WASHBOX - GEOSENTINEL INC,GREAT NECK,9179383431,NY,"98 CUTTERMILL RD., SUITE 466",11021
WATERBAR,SAN FRANCISCO,4152849922,CA,399 THE EMBARCADERO,94105
WAVESPOT,WALNUT CREEK,9252260440,CA,"1255 TREAT BLVD., STE. 300",94597
WAYFARE TAVERN,SAN FRANCISCO,4157729060,CA,558 SACRAMENTO ST.,94111
WAYMO,MOUNTAIN VIEW,8444200595,CA,100 MAYFIELD AVE.,94043
WEBCOR BUILDERS,SAN FRANCISCO,4159781000,CA,"207 KING ST., STE. 300",94107
WELLS FARGO,SAN FRANCISCO,8004414932,CA,420 MONTGOMERY STREET,94104
WESTERN REGIONAL MINORITY SUPPLIER DEVELOPMENT COUNCIL / WRMSDC,OAKLAND,5106862555,CA,"80 SWAN WAY, #245",94621
WESTERN TEXTILE &AMP; MFG. CO.,SAUSALITO,4152252010,CA,"1750 BRIDGEWAY, STE. B207",94965
"WESTON WEAR, INC.",SO. SAN FRANCISCO,4155508869,CA,"389 OYSTER POINT BLVD., STE. 8",94080
WHOLE FOODS MARKET,EMERYVILLE,5104287400,CA,"5980 HORTON ST., STE. 200",94608
WHOLE FOODS MARKET - CASTRO,SAN FRANCISCO,4156261430,CA,2001 MARKET ST.,94114
WHOLE FOODS MARKET - FRANKLIN,SAN FRANCISCO,4156740500,CA,1765 CALIFORNIA ST.,94109
WHOLE FOODS MARKET - HAIGHT,SAN FRANCISCO,4158766740,CA,690 STANYAN ST.,94117
WHOLE FOODS MARKET - NOE VALLEY,SAN FRANCISCO,4152824700,CA,3950 24TH ST.,94114
WHOLE FOODS MARKET - OCEAN,SAN FRANCISCO,4153337400,CA,1150 OCEAN AVE.,94112
WHOLE FOODS MARKET - POTRERO HILL,SAN FRANCISCO,4155521155,CA,450 RHODE ISLAND ST.,94107
WHOLE FOODS MARKET - SOMA,SAN FRANCISCO,4156180066,CA,399 FOURTH ST.,94107
WHOLE FOODS MARKET - STONESTOWN,SAN FRANCISCO,4153754242,CA,"3251 20TH AVE., SUITE 340",94132
WHOLE FOODS MARKET - TRINITY PLACE,SAN FRANCISCO,4153547555,CA,1185 MARKET ST.,94103
WILBUR-ELLIS COMPANY &AMP; CONNELL BROS.,SAN FRANCISCO,4157724000,CA,"345 CALIFORNIA ST., 27TH FLR.",94104
WILCOX FOODS,SAN FRANCISCO,4152824116,CA,2200 OAKDALE AVE.,94124
WILDEBEEST,SAN FRANCISCO,4153902584,CA,"3435 CESAR CHAVEZ ST., #328",94110
"WILLIAMS-SONOMA, INC.",SAN FRANCISCO,4154217900,CA,3250 VAN NESS AVE.,94109
WIPEOUT BAR &AMP; GRILL,SAN FRANCISCO,4159865966,CA,"PIER 39, SPACE A02",94133
WOLF&AMP;BEAR WORKSHOP,SAN FRANCISCO,7135601545,CA,"236 CLARA ST., UNIT 3",94107
WOOD THUMB,SAN FRANCISCO,4155955969,CA,"3288 21ST ST., #51",94110
WORDS &AMP; WATERCOLORS,SAN FRANCISCO,4152971917,CA,1407 INDIANA ST.,94107
WORKING SOLUTIONS,SAN FRANCISCO,4157801217,CA,"930 MONTGOMERY ST., STE. 400",94133
WORLD AFFAIRS COUNCIL OF NORTHERN CALIFORNIA,SAN FRANCISCO,4152934600,CA,"312 SUTTER ST., STE. 200",94108
WORLD SAVVY,SAN FRANCISCO,,CA,"600 CALIFORNIA ST., 11TH FLOOR",94108
WSP USA ENVIRONMENT &AMP; INFRASTRUCTURE INC.,SAN FRANCISCO,4155438422,CA,"44 MONTGOMERY STREET, SUITE 1430",94104
"YELLOW OWL WORKSHOP, INC.",SAN FRANCISCO,4152822025,CA,"650 FLORIDA ST., UNIT E",94110
YERBA BUENA ALLIANCE,SAN FRANCISCO,4155410312,CA,"735 MARKET ST., 2ND FLR.",94103
YERBA BUENA COMMUNITY BENEFIT DISTRICT,SAN FRANCISCO,4156440728,CA,750 HOWARD STREET,94103
YMCA OF SAN FRANCISCO,SAN FRANCISCO,4157779622,CA,169 STEUART STREET,94105
YOCONUT DAIRY FREE,SOUTH SAN FRANCISCO,4155989626,CA,158 SOUTH SPRUCE AVE.,94080
YOUNG DENTAL SF GROUP,SAN FRANCISCO,4153928611,CA,"490 POST ST., STE. 830",94102
YU &AMP; ASSOCIATES,SAN FRANCISCO,,CA,"235 MONTGOMERY ST., STE. 760",94104
Z. CIOCCOLATO,SAN FRANCISCO,4153959116,CA,474 COLUMBUS AVE.,94133
ZAUBEN INC.,CHICAGO,,IL,"222 WEST MERCHANDISE MART PLAZA, SUITE 121",60605
ZEEHAUS INC.,SAN FRANCISCO,4158518552,CA,"1390 MARKET ST., SUITE 200",94102
ZILLOW,SAN FRANCISCO,,CA,"102 HOWARD ST., STE. 213",94105
ZOMADIC,SAN FRANCISCO,4154076793,CA,"2901 MARIPOSA ST., STE. 15",94110
ZUCKERBERG SAN FRANCISCO GENERAL HOSPITAL AND TRAUMA CENTER,SAN FRANCISCO,4152068000,CA,1001 POTRERO AVE.,94110
